{"type":"FeatureCollection","features":[{"type":"Feature","properties":{"codigo":"01","nombre":"Amazonas"},"geometry":{"type":"Polygon","coordinates":[[[-78.226,-3.507],[-78.197,-3.488],[-78.164,-3.477],[-78.155,-3.457],[-78.157,-3.429],[-78.197,-3.386],[-78.196,-3.364],[-78.148,-3.322],[-78.105,-3.245],[-78.043,-3.19],[-77.941,-3.055],[-77.868,-2.99],[-77.81,-2.967],[-77.795,-3.077],[-77.768,-3.173],[-77.759,-3.287],[-77.709,-3.373],[-77.67,-3.48],[-77.658,-3.57],[-77.635,-3.646],[-77.64,-3.717],[-77.634,-3.764],[-77.625,-3.788],[-77.581,-3.849],[-77.564,-3.886],[-77.551,-3.967],[-77.534,-4.021],[-77.558,-4.1],[-77.57,-4.274],[-77.567,-4.337],[-77.579,-4.439],[-77.665,-4.611],[-77.705,-4.652],[-77.741,-4.703],[-77.773,-4.798],[-77.776,-4.876],[-77.747,-4.991],[-77.733,-5.133],[-77.711,-5.228],[-77.64,-5.385],[-77.678,-5.416],[-77.713,-5.475],[-77.716,-5.502],[-77.699,-5.616],[-77.706,-5.652],[-77.725,-5.68],[-77.715,-5.723],[-77.62,-5.899],[-77.594,-5.961],[-77.569,-5.994],[-77.526,-6.024],[-77.358,-6.07],[-77.306,-6.09],[-77.255,-6.121],[-77.233,-6.146],[-77.196,-6.211],[-77.165,-6.308],[-77.164,-6.34],[-77.189,-6.373],[-77.297,-6.468],[-77.309,-6.484],[-77.344,-6.574],[-77.379,-6.6],[-77.447,-6.617],[-77.513,-6.613],[-77.566,-6.618],[-77.6,-6.612],[-77.671,-6.575],[-77.69,-6.572],[-77.717,-6.588],[-77.732,-6.614],[-77.75,-6.803],[-77.778,-6.89],[-77.781,-6.921],[-77.775,-6.959],[-77.742,-6.994],[-77.799,-7.001],[-77.891,-6.987],[-77.992,-7.013],[-78.005,-7.001],[-78.01,-6.965],[-78.021,-6.938],[-78.011,-6.877],[-78.031,-6.849],[-78.028,-6.839],[-78.011,-6.826],[-78.016,-6.76],[-78.079,-6.65],[-78.131,-6.524],[-78.159,-6.5],[-78.175,-6.459],[-78.237,-6.432],[-78.267,-6.405],[-78.324,-6.377],[-78.349,-6.35],[-78.39,-6.262],[-78.426,-6.208],[-78.45,-6.15],[-78.522,-6.104],[-78.543,-6.082],[-78.556,-6.076],[-78.598,-6.073],[-78.619,-6.06],[-78.637,-6.02],[-78.704,-5.953],[-78.74,-5.881],[-78.773,-5.833],[-78.774,-5.79],[-78.768,-5.77],[-78.727,-5.726],[-78.727,-5.714],[-78.746,-5.705],[-78.747,-5.689],[-78.722,-5.672],[-78.647,-5.557],[-78.62,-5.529],[-78.607,-5.502],[-78.613,-5.46],[-78.607,-5.371],[-78.625,-5.234],[-78.644,-5.182],[-78.65,-5.147],[-78.643,-5.103],[-78.619,-5.029],[-78.587,-4.998],[-78.577,-4.949],[-78.589,-4.882],[-78.626,-4.823],[-78.639,-4.784],[-78.657,-4.693],[-78.709,-4.585],[-78.682,-4.567],[-78.673,-4.551],[-78.67,-4.493],[-78.64,-4.451],[-78.637,-4.435],[-78.661,-4.421],[-78.673,-4.402],[-78.682,-4.327],[-78.674,-4.306],[-78.656,-4.291],[-78.638,-4.227],[-78.577,-4.1],[-78.566,-4.056],[-78.562,-3.98],[-78.552,-3.969],[-78.516,-3.961],[-78.498,-3.95],[-78.481,-3.85],[-78.47,-3.83],[-78.42,-3.791],[-78.414,-3.772],[-78.426,-3.689],[-78.401,-3.68],[-78.402,-3.594],[-78.363,-3.489],[-78.355,-3.435],[-78.362,-3.409],[-78.351,-3.39],[-78.334,-3.385],[-78.313,-3.387],[-78.27,-3.4],[-78.257,-3.41],[-78.226,-3.507]]]}},{"type":"Feature","properties":{"codigo":"02","nombre":"Áncash"},"geometry":{"type":"Polygon","coordinates":[[[-77.891,-10.603],[-77.912,-10.566],[-77.91,-10.555],[-77.923,-10.531],[-77.968,-10.494],[-77.966,-10.478],[-77.977,-10.456],[-78.011,-10.413],[-78.006,-10.382],[-78.056,-10.348],[-78.058,-10.302],[-78.086,-10.277],[-78.096,-10.241],[-78.091,-10.229],[-78.105,-10.201],[-78.167,-10.141],[-78.182,-10.111],[-78.183,-10.101],[-78.168,-10.093],[-78.179,-10.069],[-78.178,-10.043],[-78.194,-10.021],[-78.198,-9.997],[-78.215,-9.963],[-78.236,-9.947],[-78.229,-9.936],[-78.23,-9.901],[-78.243,-9.859],[-78.23,-9.825],[-78.229,-9.794],[-78.301,-9.722],[-78.308,-9.698],[-78.37,-9.615],[-78.374,-9.585],[-78.368,-9.557],[-78.387,-9.547],[-78.39,-9.516],[-78.406,-9.478],[-78.385,-9.451],[-78.393,-9.435],[-78.406,-9.435],[-78.427,-9.42],[-78.429,-9.376],[-78.415,-9.362],[-78.443,-9.341],[-78.449,-9.328],[-78.461,-9.323],[-78.484,-9.33],[-78.506,-9.305],[-78.51,-9.284],[-78.527,-9.27],[-78.497,-9.253],[-78.49,-9.233],[-78.488,-9.214],[-78.497,-9.19],[-78.536,-9.173],[-78.559,-9.184],[-78.562,-9.192],[-78.553,-9.244],[-78.564,-9.241],[-78.578,-9.213],[-78.611,-9.177],[-78.614,-9.161],[-78.61,-9.156],[-78.571,-9.168],[-78.56,-9.148],[-78.559,-9.128],[-78.568,-9.104],[-78.592,-9.077],[-78.624,-9.079],[-78.632,-9.072],[-78.642,-9.056],[-78.629,-9.013],[-78.661,-8.996],[-78.662,-8.985],[-78.654,-8.987],[-78.649,-8.964],[-78.631,-8.96],[-78.617,-8.944],[-78.607,-8.91],[-78.597,-8.825],[-78.575,-8.783],[-78.537,-8.755],[-78.395,-8.708],[-78.342,-8.67],[-78.254,-8.658],[-78.223,-8.598],[-78.236,-8.542],[-78.162,-8.429],[-78.151,-8.382],[-78.13,-8.349],[-78.12,-8.312],[-77.957,-8.171],[-77.93,-8.134],[-77.914,-8.085],[-77.898,-8.064],[-77.834,-8.074],[-77.793,-8.074],[-77.683,-8.033],[-77.647,-8.011],[-77.652,-8.029],[-77.648,-8.048],[-77.62,-8.083],[-77.628,-8.106],[-77.605,-8.152],[-77.534,-8.218],[-77.503,-8.231],[-77.484,-8.249],[-77.421,-8.347],[-77.35,-8.435],[-77.322,-8.497],[-77.323,-8.534],[-77.297,-8.623],[-77.296,-8.672],[-77.29,-8.685],[-77.244,-8.718],[-77.214,-8.757],[-77.207,-8.785],[-77.214,-8.809],[-77.192,-8.847],[-77.136,-8.899],[-77.074,-8.921],[-76.986,-9.022],[-76.914,-9.047],[-76.883,-9.091],[-76.78,-9.136],[-76.738,-9.172],[-76.748,-9.215],[-76.859,-9.326],[-76.96,-9.557],[-76.961,-9.609],[-76.974,-9.642],[-77.051,-9.732],[-77.073,-9.77],[-77.073,-9.79],[-77.045,-9.833],[-77.0,-9.948],[-76.999,-10.008],[-76.988,-10.059],[-76.966,-10.083],[-76.922,-10.099],[-76.906,-10.117],[-76.929,-10.184],[-76.934,-10.233],[-76.932,-10.287],[-77.106,-10.358],[-77.15,-10.385],[-77.158,-10.405],[-77.165,-10.466],[-77.197,-10.518],[-77.273,-10.584],[-77.375,-10.642],[-77.41,-10.705],[-77.442,-10.726],[-77.494,-10.745],[-77.588,-10.744],[-77.593,-10.737],[-77.593,-10.705],[-77.606,-10.654],[-77.595,-10.603],[-77.602,-10.581],[-77.64,-10.563],[-77.668,-10.536],[-77.729,-10.534],[-77.754,-10.521],[-77.751,-10.501],[-77.697,-10.46],[-77.677,-10.425],[-77.672,-10.407],[-77.681,-10.387],[-77.7,-10.366],[-77.757,-10.36],[-77.781,-10.367],[-77.79,-10.425],[-77.807,-10.476],[-77.802,-10.518],[-77.814,-10.549],[-77.831,-10.568],[-77.863,-10.581],[-77.891,-10.603]]]}},{"type":"Feature","properties":{"codigo":"03","nombre":"Apurímac"},"geometry":{"type":"Polygon","coordinates":[[[-72.964,-13.398],[-72.899,-13.398],[-72.882,-13.429],[-72.803,-13.435],[-72.771,-13.451],[-72.705,-13.502],[-72.613,-13.547],[-72.605,-13.562],[-72.553,-13.567],[-72.515,-13.578],[-72.498,-13.591],[-72.43,-13.598],[-72.398,-13.64],[-72.405,-13.648],[-72.375,-13.675],[-72.322,-13.699],[-72.272,-13.695],[-72.228,-13.726],[-72.165,-13.784],[-72.083,-13.937],[-72.082,-14.111],[-72.112,-14.217],[-72.129,-14.244],[-72.177,-14.28],[-72.232,-14.342],[-72.279,-14.417],[-72.365,-14.44],[-72.414,-14.49],[-72.467,-14.509],[-72.488,-14.528],[-72.5,-14.547],[-72.503,-14.568],[-72.482,-14.614],[-72.486,-14.674],[-72.589,-14.699],[-72.643,-14.683],[-72.71,-14.68],[-72.763,-14.659],[-72.778,-14.661],[-72.823,-14.695],[-72.848,-14.732],[-72.913,-14.702],[-72.957,-14.669],[-73.031,-14.627],[-73.054,-14.661],[-73.106,-14.665],[-73.147,-14.691],[-73.228,-14.711],[-73.286,-14.717],[-73.357,-14.7],[-73.376,-14.735],[-73.403,-14.764],[-73.425,-14.799],[-73.519,-14.82],[-73.534,-14.805],[-73.574,-14.693],[-73.53,-14.69],[-73.499,-14.596],[-73.5,-14.572],[-73.54,-14.501],[-73.527,-14.353],[-73.535,-14.243],[-73.54,-14.227],[-73.603,-14.13],[-73.624,-14.067],[-73.632,-14.001],[-73.745,-13.792],[-73.75,-13.769],[-73.696,-13.752],[-73.69,-13.748],[-73.691,-13.733],[-73.739,-13.664],[-73.791,-13.641],[-73.813,-13.6],[-73.832,-13.442],[-73.845,-13.413],[-73.85,-13.378],[-73.844,-13.35],[-73.815,-13.303],[-73.828,-13.283],[-73.829,-13.265],[-73.808,-13.217],[-73.792,-13.206],[-73.78,-13.207],[-73.723,-13.267],[-73.549,-13.375],[-73.493,-13.427],[-73.464,-13.441],[-73.262,-13.477],[-73.241,-13.471],[-73.221,-13.422],[-73.17,-13.441],[-73.149,-13.429],[-73.097,-13.458],[-73.049,-13.425],[-73.036,-13.422],[-73.016,-13.429],[-72.964,-13.398]]]}},{"type":"Feature","properties":{"codigo":"04","nombre":"Arequipa"},"geometry":{"type":"Polygon","coordinates":[[[-71.488,-17.318],[-71.498,-17.297],[-71.515,-17.285],[-71.593,-17.266],[-71.641,-17.232],[-71.808,-17.191],[-71.846,-17.175],[-71.878,-17.149],[-71.949,-17.073],[-72.003,-17.043],[-72.047,-17.028],[-72.118,-17.019],[-72.124,-16.978],[-72.179,-16.942],[-72.197,-16.916],[-72.269,-16.895],[-72.293,-16.881],[-72.297,-16.844],[-72.307,-16.824],[-72.362,-16.761],[-72.385,-16.746],[-72.414,-16.741],[-72.44,-16.714],[-72.488,-16.69],[-72.53,-16.684],[-72.588,-16.659],[-72.692,-16.661],[-72.781,-16.629],[-72.888,-16.555],[-73.06,-16.495],[-73.094,-16.46],[-73.175,-16.413],[-73.193,-16.407],[-73.232,-16.408],[-73.28,-16.388],[-73.296,-16.396],[-73.326,-16.331],[-73.365,-16.32],[-73.42,-16.293],[-73.599,-16.24],[-73.676,-16.228],[-73.701,-16.245],[-73.7,-16.221],[-73.735,-16.19],[-73.843,-16.147],[-74.004,-16.037],[-74.033,-16.012],[-74.028,-15.989],[-74.047,-15.96],[-74.162,-15.901],[-74.221,-15.891],[-74.266,-15.848],[-74.29,-15.84],[-74.328,-15.848],[-74.398,-15.827],[-74.446,-15.792],[-74.463,-15.727],[-74.538,-15.703],[-74.848,-15.566],[-74.869,-15.538],[-74.979,-15.482],[-75.006,-15.461],[-75.049,-15.461],[-75.076,-15.438],[-75.019,-15.352],[-74.999,-15.301],[-74.962,-15.238],[-74.938,-15.217],[-74.727,-15.088],[-74.719,-15.118],[-74.702,-15.134],[-74.598,-15.155],[-74.468,-15.196],[-74.47,-15.239],[-74.428,-15.313],[-74.413,-15.352],[-74.344,-15.386],[-74.337,-15.426],[-74.289,-15.476],[-74.248,-15.492],[-74.218,-15.493],[-74.181,-15.482],[-74.132,-15.452],[-74.114,-15.448],[-74.105,-15.457],[-74.098,-15.501],[-74.082,-15.522],[-74.088,-15.585],[-74.083,-15.604],[-74.073,-15.608],[-74.057,-15.607],[-73.97,-15.559],[-73.911,-15.46],[-73.891,-15.447],[-73.766,-15.445],[-73.618,-15.427],[-73.574,-15.416],[-73.457,-15.365],[-73.399,-15.387],[-73.283,-15.395],[-73.292,-15.324],[-73.281,-15.286],[-73.239,-15.283],[-73.178,-15.299],[-73.163,-15.294],[-73.105,-15.199],[-73.034,-15.13],[-73.006,-14.974],[-73.035,-14.909],[-73.027,-14.864],[-73.011,-14.838],[-72.989,-14.82],[-72.958,-14.81],[-72.888,-14.814],[-72.844,-14.802],[-72.836,-14.787],[-72.845,-14.764],[-72.848,-14.732],[-72.823,-14.695],[-72.796,-14.672],[-72.763,-14.659],[-72.71,-14.68],[-72.643,-14.683],[-72.589,-14.699],[-72.486,-14.674],[-72.49,-14.728],[-72.422,-14.815],[-72.398,-14.828],[-72.335,-14.843],[-72.216,-14.819],[-72.16,-14.797],[-72.13,-14.812],[-72.103,-14.869],[-72.079,-14.883],[-72.069,-14.879],[-72.043,-14.842],[-72.038,-14.813],[-72.024,-14.783],[-72.027,-14.742],[-72.043,-14.717],[-72.046,-14.697],[-72.031,-14.671],[-72.012,-14.669],[-71.991,-14.679],[-71.969,-14.7],[-71.902,-14.794],[-71.878,-14.842],[-71.856,-14.855],[-71.81,-14.866],[-71.806,-14.873],[-71.817,-14.899],[-71.857,-14.929],[-71.847,-15.001],[-71.863,-15.043],[-71.85,-15.055],[-71.825,-15.067],[-71.699,-15.099],[-71.667,-15.114],[-71.605,-15.081],[-71.535,-15.079],[-71.513,-15.073],[-71.504,-15.057],[-71.513,-15.031],[-71.512,-15.021],[-71.504,-15.017],[-71.492,-15.019],[-71.461,-15.043],[-71.409,-15.048],[-71.336,-15.108],[-71.311,-15.117],[-71.291,-15.112],[-71.245,-15.074],[-71.226,-15.071],[-71.206,-15.078],[-71.189,-15.091],[-71.174,-15.12],[-71.178,-15.218],[-71.171,-15.227],[-71.112,-15.252],[-71.084,-15.274],[-71.029,-15.334],[-71.025,-15.366],[-71.033,-15.431],[-71.031,-15.448],[-71.01,-15.491],[-71.014,-15.557],[-70.978,-15.607],[-70.923,-15.653],[-70.905,-15.68],[-70.903,-15.706],[-70.933,-15.758],[-70.937,-15.786],[-70.91,-15.825],[-70.883,-15.878],[-70.842,-15.908],[-70.837,-15.933],[-70.85,-15.988],[-70.864,-16.206],[-70.875,-16.263],[-70.945,-16.336],[-70.959,-16.358],[-70.963,-16.387],[-70.953,-16.433],[-70.959,-16.463],[-71.009,-16.486],[-71.055,-16.457],[-71.099,-16.467],[-71.133,-16.467],[-71.205,-16.499],[-71.307,-16.625],[-71.301,-16.694],[-71.306,-16.735],[-71.322,-16.749],[-71.378,-16.771],[-71.429,-16.815],[-71.448,-16.844],[-71.447,-16.888],[-71.409,-16.979],[-71.347,-17.024],[-71.332,-17.045],[-71.346,-17.07],[-71.373,-17.168],[-71.404,-17.208],[-71.423,-17.259],[-71.434,-17.276],[-71.488,-17.318]]]}},{"type":"Feature","properties":{"codigo":"05","nombre":"Ayacucho"},"geometry":{"type":"Polygon","coordinates":[[[-73.961,-12.277],[-73.934,-12.324],[-73.896,-12.37],[-73.88,-12.421],[-73.859,-12.448],[-73.863,-12.493],[-73.858,-12.505],[-73.83,-12.516],[-73.817,-12.558],[-73.763,-12.628],[-73.748,-12.64],[-73.742,-12.619],[-73.726,-12.629],[-73.668,-12.692],[-73.66,-12.726],[-73.634,-12.779],[-73.621,-12.852],[-73.601,-12.884],[-73.587,-12.935],[-73.555,-12.966],[-73.569,-12.986],[-73.549,-13.064],[-73.564,-13.092],[-73.513,-13.118],[-73.498,-13.13],[-73.471,-13.175],[-73.44,-13.185],[-73.411,-13.209],[-73.359,-13.273],[-73.303,-13.358],[-73.255,-13.387],[-73.221,-13.422],[-73.234,-13.461],[-73.251,-13.477],[-73.464,-13.441],[-73.493,-13.427],[-73.549,-13.375],[-73.723,-13.267],[-73.78,-13.207],[-73.792,-13.206],[-73.808,-13.217],[-73.829,-13.265],[-73.828,-13.283],[-73.815,-13.303],[-73.844,-13.35],[-73.85,-13.378],[-73.845,-13.413],[-73.832,-13.442],[-73.813,-13.6],[-73.791,-13.641],[-73.739,-13.664],[-73.691,-13.733],[-73.69,-13.748],[-73.696,-13.752],[-73.75,-13.769],[-73.745,-13.792],[-73.632,-14.001],[-73.624,-14.067],[-73.603,-14.13],[-73.54,-14.227],[-73.535,-14.243],[-73.527,-14.353],[-73.54,-14.501],[-73.5,-14.572],[-73.499,-14.596],[-73.53,-14.69],[-73.574,-14.693],[-73.534,-14.805],[-73.519,-14.82],[-73.433,-14.804],[-73.382,-14.743],[-73.357,-14.7],[-73.286,-14.717],[-73.228,-14.711],[-73.147,-14.691],[-73.106,-14.665],[-73.054,-14.661],[-73.031,-14.627],[-72.957,-14.669],[-72.913,-14.702],[-72.848,-14.732],[-72.845,-14.764],[-72.836,-14.787],[-72.837,-14.796],[-72.853,-14.807],[-72.888,-14.814],[-72.958,-14.81],[-72.989,-14.82],[-73.011,-14.838],[-73.027,-14.864],[-73.035,-14.909],[-73.006,-14.974],[-73.034,-15.13],[-73.105,-15.199],[-73.163,-15.294],[-73.178,-15.299],[-73.239,-15.283],[-73.281,-15.286],[-73.292,-15.324],[-73.283,-15.395],[-73.399,-15.387],[-73.457,-15.365],[-73.574,-15.416],[-73.618,-15.427],[-73.766,-15.445],[-73.891,-15.447],[-73.911,-15.46],[-73.97,-15.559],[-74.057,-15.607],[-74.073,-15.608],[-74.083,-15.604],[-74.088,-15.585],[-74.082,-15.522],[-74.098,-15.501],[-74.105,-15.457],[-74.114,-15.448],[-74.132,-15.452],[-74.181,-15.482],[-74.218,-15.493],[-74.248,-15.492],[-74.28,-15.481],[-74.331,-15.435],[-74.341,-15.417],[-74.344,-15.386],[-74.413,-15.352],[-74.428,-15.313],[-74.47,-15.239],[-74.468,-15.196],[-74.598,-15.155],[-74.674,-15.143],[-74.712,-15.127],[-74.727,-15.088],[-74.693,-15.001],[-74.693,-14.916],[-74.733,-14.841],[-74.752,-14.82],[-74.772,-14.73],[-74.838,-14.677],[-74.848,-14.662],[-74.841,-14.623],[-74.845,-14.614],[-74.9,-14.556],[-74.931,-14.555],[-74.979,-14.605],[-75.049,-14.615],[-75.069,-14.54],[-75.048,-14.5],[-75.05,-14.477],[-75.066,-14.452],[-75.116,-14.417],[-75.132,-14.398],[-75.062,-14.259],[-75.085,-14.202],[-75.085,-14.185],[-75.057,-14.123],[-74.992,-14.09],[-74.824,-14.057],[-74.755,-14.058],[-74.739,-14.038],[-74.735,-14.02],[-74.724,-13.902],[-74.732,-13.85],[-74.792,-13.703],[-74.797,-13.672],[-74.794,-13.595],[-74.799,-13.579],[-74.817,-13.554],[-74.847,-13.529],[-74.867,-13.492],[-74.919,-13.46],[-74.928,-13.445],[-74.9,-13.351],[-74.889,-13.341],[-74.8,-13.313],[-74.78,-13.313],[-74.765,-13.327],[-74.745,-13.364],[-74.644,-13.389],[-74.603,-13.345],[-74.655,-13.326],[-74.685,-13.289],[-74.681,-13.28],[-74.62,-13.243],[-74.577,-13.189],[-74.552,-13.199],[-74.531,-13.201],[-74.442,-13.188],[-74.411,-13.171],[-74.4,-13.145],[-74.419,-13.087],[-74.419,-13.062],[-74.414,-13.041],[-74.393,-13.019],[-74.356,-13.015],[-74.296,-13.052],[-74.289,-13.054],[-74.281,-13.043],[-74.286,-13.002],[-74.315,-12.932],[-74.339,-12.908],[-74.333,-12.867],[-74.337,-12.836],[-74.324,-12.827],[-74.307,-12.828],[-74.298,-12.785],[-74.299,-12.76],[-74.331,-12.692],[-74.326,-12.639],[-74.334,-12.613],[-74.395,-12.535],[-74.433,-12.463],[-74.46,-12.451],[-74.5,-12.46],[-74.517,-12.448],[-74.554,-12.392],[-74.504,-12.252],[-74.488,-12.229],[-74.453,-12.194],[-74.387,-12.147],[-74.365,-12.174],[-74.346,-12.217],[-74.294,-12.238],[-74.237,-12.291],[-74.218,-12.301],[-74.158,-12.314],[-74.125,-12.299],[-74.1,-12.275],[-74.07,-12.261],[-74.018,-12.281],[-73.961,-12.277]]]}},{"type":"Feature","properties":{"codigo":"06","nombre":"Cajamarca"},"geometry":{"type":"Polygon","coordinates":[[[-79.064,-5.011],[-79.009,-4.96],[-78.991,-4.89],[-78.98,-4.874],[-78.911,-4.864],[-78.9,-4.844],[-78.905,-4.82],[-78.928,-4.775],[-78.929,-4.747],[-78.899,-4.694],[-78.853,-4.652],[-78.709,-4.585],[-78.657,-4.693],[-78.626,-4.823],[-78.589,-4.882],[-78.577,-4.965],[-78.587,-4.998],[-78.619,-5.029],[-78.643,-5.103],[-78.65,-5.147],[-78.644,-5.182],[-78.625,-5.234],[-78.607,-5.371],[-78.613,-5.46],[-78.607,-5.502],[-78.62,-5.529],[-78.647,-5.557],[-78.722,-5.672],[-78.747,-5.689],[-78.746,-5.705],[-78.727,-5.714],[-78.727,-5.726],[-78.768,-5.77],[-78.774,-5.79],[-78.773,-5.833],[-78.74,-5.881],[-78.704,-5.953],[-78.637,-6.02],[-78.619,-6.06],[-78.598,-6.073],[-78.556,-6.076],[-78.543,-6.082],[-78.522,-6.104],[-78.45,-6.15],[-78.426,-6.208],[-78.39,-6.262],[-78.349,-6.35],[-78.324,-6.377],[-78.267,-6.405],[-78.237,-6.432],[-78.175,-6.459],[-78.159,-6.5],[-78.12,-6.541],[-78.079,-6.65],[-78.025,-6.74],[-78.012,-6.781],[-78.011,-6.826],[-78.028,-6.839],[-78.031,-6.849],[-78.011,-6.877],[-78.021,-6.938],[-78.01,-6.965],[-78.005,-7.001],[-77.977,-7.028],[-77.972,-7.047],[-77.954,-7.075],[-77.936,-7.158],[-77.906,-7.187],[-77.899,-7.21],[-77.87,-7.234],[-77.874,-7.275],[-77.867,-7.289],[-77.849,-7.295],[-77.84,-7.377],[-77.771,-7.433],[-77.754,-7.468],[-77.794,-7.464],[-77.851,-7.47],[-77.918,-7.509],[-77.923,-7.521],[-77.915,-7.6],[-77.935,-7.662],[-77.942,-7.67],[-78.004,-7.674],[-78.073,-7.698],[-78.086,-7.695],[-78.116,-7.667],[-78.128,-7.667],[-78.141,-7.673],[-78.226,-7.75],[-78.294,-7.768],[-78.304,-7.706],[-78.355,-7.685],[-78.396,-7.646],[-78.405,-7.643],[-78.447,-7.65],[-78.492,-7.641],[-78.543,-7.601],[-78.6,-7.57],[-78.65,-7.569],[-78.703,-7.585],[-78.734,-7.568],[-78.784,-7.554],[-78.853,-7.588],[-78.9,-7.589],[-78.94,-7.607],[-78.96,-7.633],[-78.967,-7.662],[-78.997,-7.703],[-79.003,-7.703],[-79.068,-7.651],[-79.069,-7.635],[-79.057,-7.589],[-79.059,-7.568],[-79.095,-7.493],[-79.12,-7.464],[-79.198,-7.403],[-79.352,-7.358],[-79.383,-7.334],[-79.38,-7.299],[-79.36,-7.275],[-79.34,-7.226],[-79.343,-7.19],[-79.36,-7.162],[-79.348,-7.01],[-79.329,-7.006],[-79.32,-6.993],[-79.32,-6.897],[-79.307,-6.878],[-79.265,-6.86],[-79.243,-6.843],[-79.21,-6.796],[-79.172,-6.774],[-79.162,-6.743],[-79.165,-6.719],[-79.183,-6.704],[-79.231,-6.693],[-79.261,-6.678],[-79.308,-6.679],[-79.321,-6.671],[-79.335,-6.655],[-79.371,-6.565],[-79.387,-6.542],[-79.4,-6.535],[-79.432,-6.535],[-79.446,-6.52],[-79.452,-6.474],[-79.44,-6.428],[-79.464,-6.384],[-79.46,-6.361],[-79.441,-6.333],[-79.414,-6.31],[-79.375,-6.294],[-79.294,-6.279],[-79.26,-6.241],[-79.25,-6.201],[-79.255,-6.192],[-79.293,-6.173],[-79.297,-6.149],[-79.287,-6.131],[-79.229,-6.077],[-79.217,-6.048],[-79.221,-6.028],[-79.231,-6.02],[-79.288,-5.998],[-79.309,-5.982],[-79.332,-5.987],[-79.364,-6.015],[-79.379,-5.988],[-79.39,-5.985],[-79.437,-6.001],[-79.451,-5.989],[-79.367,-5.922],[-79.355,-5.907],[-79.365,-5.867],[-79.396,-5.831],[-79.403,-5.784],[-79.419,-5.744],[-79.398,-5.606],[-79.409,-5.545],[-79.392,-5.499],[-79.378,-5.494],[-79.325,-5.501],[-79.321,-5.48],[-79.33,-5.342],[-79.362,-5.312],[-79.366,-5.243],[-79.39,-5.186],[-79.388,-5.172],[-79.381,-5.155],[-79.326,-5.097],[-79.309,-5.059],[-79.276,-5.043],[-79.266,-5.004],[-79.234,-4.966],[-79.192,-4.968],[-79.141,-4.983],[-79.104,-4.98],[-79.064,-5.011]]]}},{"type":"Feature","properties":{"codigo":"07","nombre":"Callao"},"geometry":{"type":"MultiPolygon","coordinates":[[[[-77.114,-12.081],[-77.175,-12.072],[-77.145,-12.023],[-77.141,-11.999],[-77.112,-12.019],[-77.108,-12.042],[-77.114,-12.081]]],[[[-77.233,-12.065],[-77.182,-12.116],[-77.204,-12.115],[-77.237,-12.093],[-77.254,-12.063],[-77.244,-12.059],[-77.233,-12.065]]]]}},{"type":"Feature","properties":{"codigo":"08","nombre":"Cusco"},"geometry":{"type":"Polygon","coordinates":[[[-73.748,-12.64],[-73.817,-12.558],[-73.83,-12.516],[-73.858,-12.505],[-73.863,-12.493],[-73.859,-12.448],[-73.88,-12.421],[-73.896,-12.37],[-73.934,-12.324],[-73.961,-12.277],[-73.824,-12.271],[-73.707,-12.239],[-73.657,-12.216],[-73.638,-12.194],[-73.62,-12.156],[-73.608,-12.114],[-73.605,-12.019],[-73.505,-11.868],[-73.487,-11.774],[-73.488,-11.747],[-73.499,-11.724],[-73.544,-11.692],[-73.633,-11.661],[-73.676,-11.659],[-73.685,-11.643],[-73.673,-11.628],[-73.546,-11.533],[-73.488,-11.449],[-73.435,-11.324],[-73.406,-11.33],[-73.335,-11.312],[-73.263,-11.312],[-73.095,-11.285],[-73.054,-11.267],[-73.011,-11.21],[-72.991,-11.2],[-72.975,-11.216],[-72.965,-11.248],[-72.942,-11.279],[-72.935,-11.309],[-72.909,-11.328],[-72.869,-11.341],[-72.823,-11.37],[-72.768,-11.369],[-72.739,-11.353],[-72.72,-11.351],[-72.71,-11.356],[-72.696,-11.384],[-72.688,-11.389],[-72.677,-11.389],[-72.621,-11.421],[-72.578,-11.429],[-72.533,-11.419],[-72.466,-11.377],[-72.409,-11.332],[-72.295,-11.293],[-72.257,-11.313],[-72.22,-11.304],[-72.18,-11.313],[-72.185,-11.374],[-72.202,-11.427],[-72.332,-11.667],[-72.35,-11.721],[-72.384,-11.887],[-72.366,-11.986],[-72.357,-12.005],[-72.339,-12.023],[-72.172,-12.117],[-72.153,-12.156],[-72.125,-12.259],[-72.106,-12.288],[-72.066,-12.31],[-71.998,-12.324],[-71.976,-12.344],[-71.912,-12.478],[-71.891,-12.558],[-71.891,-12.58],[-71.913,-12.642],[-71.913,-12.668],[-71.855,-12.777],[-71.825,-12.798],[-71.611,-12.868],[-71.486,-12.869],[-71.432,-12.902],[-71.327,-12.941],[-71.175,-12.982],[-71.019,-13.074],[-70.959,-13.076],[-70.678,-13.125],[-70.553,-13.118],[-70.521,-13.1],[-70.521,-13.088],[-70.577,-13.042],[-70.582,-13.029],[-70.577,-13.015],[-70.567,-13.01],[-70.521,-13.01],[-70.474,-13.02],[-70.421,-13.014],[-70.356,-13.025],[-70.382,-13.136],[-70.385,-13.172],[-70.369,-13.232],[-70.37,-13.254],[-70.403,-13.338],[-70.541,-13.488],[-70.57,-13.539],[-70.664,-13.76],[-70.682,-13.788],[-70.721,-13.805],[-70.802,-13.818],[-70.817,-13.826],[-70.83,-13.929],[-70.85,-14.012],[-70.82,-14.05],[-70.81,-14.072],[-70.809,-14.095],[-70.832,-14.227],[-70.856,-14.287],[-70.889,-14.41],[-70.909,-14.432],[-70.961,-14.43],[-70.979,-14.443],[-71.003,-14.518],[-70.989,-14.553],[-70.99,-14.574],[-71.054,-14.634],[-71.119,-14.649],[-71.126,-14.664],[-71.118,-14.691],[-71.077,-14.745],[-71.058,-14.756],[-71.021,-14.757],[-71.0,-14.768],[-70.992,-14.779],[-71.001,-14.852],[-70.987,-14.902],[-70.984,-14.936],[-71.015,-14.989],[-71.016,-15.019],[-71.0,-15.049],[-71.009,-15.078],[-71.01,-15.114],[-70.991,-15.151],[-70.976,-15.21],[-70.979,-15.288],[-70.988,-15.313],[-71.029,-15.334],[-71.068,-15.289],[-71.112,-15.252],[-71.171,-15.227],[-71.181,-15.209],[-71.174,-15.12],[-71.189,-15.091],[-71.216,-15.074],[-71.245,-15.074],[-71.291,-15.112],[-71.311,-15.117],[-71.336,-15.108],[-71.409,-15.048],[-71.461,-15.043],[-71.492,-15.019],[-71.504,-15.017],[-71.512,-15.021],[-71.513,-15.031],[-71.504,-15.057],[-71.513,-15.073],[-71.535,-15.079],[-71.605,-15.081],[-71.667,-15.114],[-71.699,-15.099],[-71.825,-15.067],[-71.85,-15.055],[-71.863,-15.043],[-71.847,-15.001],[-71.857,-14.929],[-71.817,-14.899],[-71.806,-14.873],[-71.81,-14.866],[-71.856,-14.855],[-71.878,-14.842],[-71.902,-14.794],[-71.969,-14.7],[-72.003,-14.672],[-72.031,-14.671],[-72.042,-14.687],[-72.046,-14.707],[-72.027,-14.742],[-72.024,-14.783],[-72.038,-14.813],[-72.043,-14.842],[-72.069,-14.879],[-72.079,-14.883],[-72.103,-14.869],[-72.13,-14.812],[-72.147,-14.8],[-72.171,-14.799],[-72.216,-14.819],[-72.335,-14.843],[-72.398,-14.828],[-72.422,-14.815],[-72.49,-14.728],[-72.493,-14.711],[-72.48,-14.625],[-72.503,-14.568],[-72.5,-14.547],[-72.467,-14.509],[-72.414,-14.49],[-72.376,-14.446],[-72.279,-14.417],[-72.27,-14.408],[-72.232,-14.342],[-72.177,-14.28],[-72.123,-14.236],[-72.112,-14.217],[-72.082,-14.111],[-72.083,-13.937],[-72.151,-13.806],[-72.165,-13.784],[-72.228,-13.726],[-72.272,-13.695],[-72.337,-13.695],[-72.394,-13.661],[-72.405,-13.648],[-72.398,-13.64],[-72.43,-13.598],[-72.498,-13.591],[-72.515,-13.578],[-72.553,-13.567],[-72.605,-13.562],[-72.613,-13.547],[-72.705,-13.502],[-72.771,-13.451],[-72.803,-13.435],[-72.882,-13.429],[-72.904,-13.395],[-72.964,-13.398],[-73.016,-13.429],[-73.036,-13.422],[-73.049,-13.425],[-73.097,-13.458],[-73.149,-13.429],[-73.17,-13.441],[-73.221,-13.422],[-73.255,-13.387],[-73.303,-13.358],[-73.359,-13.273],[-73.411,-13.209],[-73.44,-13.185],[-73.471,-13.175],[-73.498,-13.13],[-73.513,-13.118],[-73.564,-13.092],[-73.549,-13.064],[-73.569,-12.986],[-73.555,-12.966],[-73.558,-12.959],[-73.582,-12.945],[-73.587,-12.935],[-73.601,-12.884],[-73.621,-12.852],[-73.634,-12.779],[-73.66,-12.726],[-73.668,-12.692],[-73.726,-12.629],[-73.742,-12.619],[-73.748,-12.64]]]}},{"type":"Feature","properties":{"codigo":"09","nombre":"Huancavelica"},"geometry":{"type":"Polygon","coordinates":[[[-74.387,-12.147],[-74.453,-12.194],[-74.497,-12.241],[-74.554,-12.392],[-74.517,-12.448],[-74.5,-12.46],[-74.46,-12.451],[-74.433,-12.463],[-74.395,-12.535],[-74.334,-12.613],[-74.326,-12.639],[-74.331,-12.692],[-74.299,-12.76],[-74.298,-12.785],[-74.307,-12.828],[-74.324,-12.827],[-74.337,-12.836],[-74.333,-12.867],[-74.339,-12.908],[-74.315,-12.932],[-74.286,-13.002],[-74.281,-13.043],[-74.289,-13.054],[-74.296,-13.052],[-74.356,-13.015],[-74.393,-13.019],[-74.414,-13.041],[-74.419,-13.062],[-74.419,-13.087],[-74.4,-13.145],[-74.411,-13.171],[-74.442,-13.188],[-74.531,-13.201],[-74.552,-13.199],[-74.577,-13.189],[-74.62,-13.243],[-74.681,-13.28],[-74.685,-13.289],[-74.655,-13.326],[-74.603,-13.345],[-74.644,-13.389],[-74.745,-13.364],[-74.765,-13.327],[-74.78,-13.313],[-74.8,-13.313],[-74.889,-13.341],[-74.9,-13.351],[-74.928,-13.445],[-74.919,-13.46],[-74.867,-13.492],[-74.847,-13.529],[-74.817,-13.554],[-74.799,-13.579],[-74.794,-13.595],[-74.797,-13.672],[-74.792,-13.703],[-74.732,-13.85],[-74.724,-13.902],[-74.735,-14.02],[-74.739,-14.038],[-74.755,-14.058],[-74.824,-14.057],[-74.992,-14.09],[-75.057,-14.123],[-75.067,-14.143],[-75.086,-14.117],[-75.125,-14.09],[-75.209,-14.076],[-75.254,-14.028],[-75.326,-13.974],[-75.349,-13.963],[-75.42,-13.95],[-75.463,-13.922],[-75.521,-13.899],[-75.542,-13.878],[-75.554,-13.851],[-75.54,-13.815],[-75.563,-13.762],[-75.56,-13.749],[-75.514,-13.673],[-75.519,-13.649],[-75.548,-13.584],[-75.512,-13.537],[-75.483,-13.466],[-75.489,-13.455],[-75.509,-13.445],[-75.568,-13.438],[-75.652,-13.408],[-75.762,-13.411],[-75.79,-13.405],[-75.801,-13.389],[-75.8,-13.367],[-75.764,-13.305],[-75.754,-13.258],[-75.72,-13.237],[-75.704,-13.217],[-75.699,-13.179],[-75.712,-13.095],[-75.699,-13.079],[-75.661,-13.061],[-75.641,-13.042],[-75.626,-13.007],[-75.635,-12.982],[-75.602,-12.867],[-75.516,-12.796],[-75.49,-12.761],[-75.467,-12.716],[-75.467,-12.676],[-75.453,-12.637],[-75.415,-12.616],[-75.394,-12.566],[-75.307,-12.478],[-75.251,-12.456],[-75.211,-12.402],[-75.187,-12.389],[-75.124,-12.375],[-75.145,-12.354],[-75.165,-12.293],[-75.11,-12.271],[-75.062,-12.189],[-75.06,-12.166],[-75.066,-12.132],[-75.112,-12.081],[-75.122,-12.052],[-75.089,-12.017],[-75.068,-11.982],[-75.061,-11.978],[-75.05,-11.982],[-75.025,-12.015],[-75.003,-12.031],[-74.956,-12.046],[-74.864,-12.029],[-74.822,-12.04],[-74.784,-12.04],[-74.728,-12.023],[-74.711,-11.995],[-74.696,-11.983],[-74.613,-11.995],[-74.55,-12.038],[-74.514,-12.039],[-74.504,-12.045],[-74.387,-12.147]]]}},{"type":"Feature","properties":{"codigo":"10","nombre":"Huánuco"},"geometry":{"type":"Polygon","coordinates":[[[-74.679,-8.619],[-74.564,-8.632],[-74.528,-8.665],[-74.511,-8.717],[-74.51,-8.737],[-74.518,-8.758],[-74.603,-8.806],[-74.614,-8.823],[-74.629,-8.966],[-74.679,-9.069],[-74.68,-9.093],[-74.669,-9.136],[-74.67,-9.173],[-74.72,-9.355],[-74.702,-9.415],[-74.538,-9.65],[-74.763,-9.754],[-74.983,-9.792],[-75.118,-9.774],[-75.353,-9.875],[-75.431,-9.892],[-75.495,-9.898],[-75.616,-9.892],[-75.707,-9.904],[-75.748,-9.921],[-75.8,-9.96],[-75.81,-9.978],[-75.82,-10.002],[-75.83,-10.075],[-75.792,-10.277],[-75.77,-10.33],[-75.779,-10.345],[-75.806,-10.364],[-75.946,-10.426],[-75.987,-10.396],[-76.035,-10.378],[-76.237,-10.363],[-76.253,-10.353],[-76.274,-10.317],[-76.293,-10.296],[-76.35,-10.268],[-76.391,-10.262],[-76.513,-10.261],[-76.569,-10.273],[-76.592,-10.29],[-76.657,-10.379],[-76.75,-10.444],[-76.775,-10.441],[-76.813,-10.417],[-76.824,-10.373],[-76.84,-10.353],[-76.901,-10.346],[-76.921,-10.329],[-76.932,-10.287],[-76.934,-10.233],[-76.929,-10.184],[-76.906,-10.117],[-76.922,-10.099],[-76.966,-10.083],[-76.988,-10.059],[-76.999,-10.008],[-77.0,-9.948],[-77.045,-9.833],[-77.073,-9.79],[-77.073,-9.77],[-77.051,-9.732],[-76.974,-9.642],[-76.961,-9.609],[-76.96,-9.557],[-76.859,-9.326],[-76.748,-9.215],[-76.738,-9.172],[-76.78,-9.136],[-76.883,-9.091],[-76.914,-9.047],[-76.986,-9.022],[-77.074,-8.921],[-77.136,-8.899],[-77.192,-8.847],[-77.214,-8.809],[-77.207,-8.785],[-77.214,-8.757],[-77.244,-8.718],[-77.29,-8.685],[-77.296,-8.672],[-77.297,-8.623],[-77.323,-8.534],[-77.167,-8.532],[-77.126,-8.524],[-77.064,-8.499],[-77.047,-8.498],[-77.036,-8.499],[-77.026,-8.51],[-77.008,-8.582],[-76.995,-8.602],[-76.953,-8.599],[-76.911,-8.612],[-76.896,-8.61],[-76.885,-8.604],[-76.856,-8.556],[-76.772,-8.538],[-76.739,-8.541],[-76.597,-8.578],[-76.458,-8.6],[-76.42,-8.599],[-76.39,-8.592],[-76.373,-8.572],[-76.364,-8.55],[-76.359,-8.505],[-76.357,-8.41],[-76.342,-8.389],[-76.313,-8.38],[-76.287,-8.417],[-76.279,-8.471],[-76.249,-8.501],[-76.238,-8.533],[-76.216,-8.554],[-76.205,-8.575],[-76.179,-8.657],[-76.174,-8.697],[-76.146,-8.729],[-76.108,-8.735],[-76.079,-8.715],[-76.012,-8.607],[-75.953,-8.568],[-75.974,-8.645],[-75.97,-8.684],[-75.904,-8.797],[-75.883,-8.997],[-75.875,-9.008],[-75.833,-9.032],[-75.803,-9.082],[-75.795,-9.113],[-75.797,-9.182],[-75.775,-9.245],[-75.721,-9.29],[-75.662,-9.396],[-75.649,-9.405],[-75.616,-9.407],[-75.557,-9.384],[-75.436,-9.284],[-75.33,-9.252],[-75.296,-9.231],[-75.274,-9.196],[-75.237,-9.155],[-75.222,-9.116],[-75.184,-9.056],[-75.158,-9.001],[-75.039,-8.838],[-74.99,-8.79],[-74.905,-8.742],[-74.802,-8.659],[-74.731,-8.631],[-74.679,-8.619]]]}},{"type":"Feature","properties":{"codigo":"11","nombre":"Ica"},"geometry":{"type":"MultiPolygon","coordinates":[[[[-75.106,-15.409],[-75.161,-15.393],[-75.167,-15.378],[-75.189,-15.37],[-75.189,-15.358],[-75.155,-15.346],[-75.152,-15.333],[-75.167,-15.311],[-75.236,-15.277],[-75.263,-15.25],[-75.233,-15.246],[-75.228,-15.236],[-75.234,-15.215],[-75.29,-15.161],[-75.31,-15.152],[-75.362,-15.145],[-75.376,-15.134],[-75.394,-15.094],[-75.441,-15.028],[-75.448,-15.008],[-75.503,-14.964],[-75.507,-14.918],[-75.551,-14.885],[-75.681,-14.821],[-75.748,-14.771],[-75.839,-14.726],[-75.867,-14.69],[-75.916,-14.664],[-75.931,-14.649],[-75.927,-14.627],[-75.933,-14.58],[-75.963,-14.535],[-75.973,-14.529],[-75.977,-14.517],[-75.965,-14.492],[-75.981,-14.461],[-76.037,-14.429],[-76.082,-14.378],[-76.117,-14.371],[-76.133,-14.36],[-76.144,-14.328],[-76.116,-14.325],[-76.107,-14.306],[-76.149,-14.224],[-76.181,-14.211],[-76.202,-14.169],[-76.215,-14.161],[-76.25,-14.148],[-76.252,-14.17],[-76.271,-14.201],[-76.29,-14.167],[-76.282,-14.141],[-76.283,-14.104],[-76.292,-14.081],[-76.281,-14.073],[-76.281,-14.057],[-76.268,-14.05],[-76.274,-14.039],[-76.269,-14.02],[-76.285,-13.992],[-76.273,-13.987],[-76.27,-13.963],[-76.277,-13.945],[-76.295,-13.935],[-76.293,-13.9],[-76.308,-13.892],[-76.325,-13.921],[-76.394,-13.908],[-76.391,-13.868],[-76.367,-13.822],[-76.371,-13.809],[-76.362,-13.802],[-76.344,-13.805],[-76.326,-13.791],[-76.296,-13.793],[-76.29,-13.805],[-76.303,-13.833],[-76.262,-13.861],[-76.254,-13.851],[-76.253,-13.83],[-76.224,-13.734],[-76.221,-13.687],[-76.198,-13.622],[-76.181,-13.539],[-76.196,-13.428],[-76.221,-13.358],[-76.249,-13.32],[-76.202,-13.287],[-76.14,-13.185],[-75.998,-13.071],[-75.981,-13.049],[-75.967,-13.016],[-75.952,-13.0],[-75.865,-13.031],[-75.797,-13.029],[-75.702,-13.016],[-75.635,-12.982],[-75.628,-12.992],[-75.626,-13.007],[-75.641,-13.042],[-75.661,-13.061],[-75.699,-13.079],[-75.712,-13.095],[-75.699,-13.179],[-75.704,-13.217],[-75.72,-13.237],[-75.754,-13.258],[-75.764,-13.305],[-75.8,-13.367],[-75.801,-13.389],[-75.79,-13.405],[-75.762,-13.411],[-75.652,-13.408],[-75.568,-13.438],[-75.509,-13.445],[-75.489,-13.455],[-75.483,-13.466],[-75.512,-13.537],[-75.548,-13.584],[-75.519,-13.649],[-75.514,-13.673],[-75.56,-13.749],[-75.563,-13.762],[-75.54,-13.815],[-75.554,-13.851],[-75.542,-13.878],[-75.521,-13.899],[-75.463,-13.922],[-75.42,-13.95],[-75.349,-13.963],[-75.326,-13.974],[-75.254,-14.028],[-75.209,-14.076],[-75.139,-14.086],[-75.086,-14.117],[-75.067,-14.143],[-75.082,-14.17],[-75.085,-14.202],[-75.062,-14.259],[-75.132,-14.398],[-75.116,-14.417],[-75.066,-14.452],[-75.05,-14.477],[-75.048,-14.5],[-75.069,-14.54],[-75.054,-14.607],[-75.04,-14.617],[-74.979,-14.605],[-74.939,-14.561],[-74.921,-14.551],[-74.891,-14.563],[-74.845,-14.614],[-74.841,-14.623],[-74.848,-14.662],[-74.838,-14.677],[-74.772,-14.73],[-74.752,-14.82],[-74.733,-14.841],[-74.697,-14.904],[-74.691,-14.953],[-74.693,-15.001],[-74.727,-15.088],[-74.938,-15.217],[-74.962,-15.238],[-74.999,-15.301],[-75.019,-15.352],[-75.076,-15.438],[-75.106,-15.409]]],[[[-76.195,-14.263],[-76.176,-14.288],[-76.18,-14.295],[-76.22,-14.275],[-76.22,-14.263],[-76.195,-14.263]]],[[[-76.437,-13.834],[-76.441,-13.854],[-76.47,-13.854],[-76.457,-13.823],[-76.446,-13.824],[-76.437,-13.834]]]]}},{"type":"Feature","properties":{"codigo":"12","nombre":"Junín"},"geometry":{"type":"Polygon","coordinates":[[[-73.435,-11.324],[-73.488,-11.449],[-73.546,-11.533],[-73.673,-11.628],[-73.685,-11.643],[-73.676,-11.659],[-73.633,-11.661],[-73.544,-11.692],[-73.495,-11.729],[-73.487,-11.757],[-73.505,-11.868],[-73.601,-12.01],[-73.609,-12.04],[-73.607,-12.092],[-73.613,-12.135],[-73.638,-12.194],[-73.665,-12.222],[-73.707,-12.239],[-73.861,-12.276],[-74.018,-12.281],[-74.045,-12.266],[-74.078,-12.262],[-74.14,-12.308],[-74.175,-12.314],[-74.228,-12.296],[-74.294,-12.238],[-74.346,-12.217],[-74.365,-12.174],[-74.387,-12.147],[-74.504,-12.045],[-74.514,-12.039],[-74.55,-12.038],[-74.613,-11.995],[-74.696,-11.983],[-74.711,-11.995],[-74.728,-12.023],[-74.784,-12.04],[-74.822,-12.04],[-74.864,-12.029],[-74.956,-12.046],[-75.011,-12.027],[-75.044,-11.989],[-75.061,-11.978],[-75.122,-12.052],[-75.112,-12.081],[-75.066,-12.132],[-75.06,-12.166],[-75.062,-12.189],[-75.11,-12.271],[-75.165,-12.293],[-75.145,-12.354],[-75.124,-12.375],[-75.187,-12.389],[-75.211,-12.402],[-75.251,-12.456],[-75.307,-12.478],[-75.394,-12.566],[-75.415,-12.616],[-75.453,-12.637],[-75.463,-12.656],[-75.467,-12.687],[-75.523,-12.645],[-75.569,-12.621],[-75.574,-12.609],[-75.567,-12.561],[-75.546,-12.505],[-75.538,-12.417],[-75.55,-12.38],[-75.563,-12.365],[-75.646,-12.199],[-75.649,-12.179],[-75.63,-12.143],[-75.641,-12.118],[-75.689,-12.079],[-75.766,-12.051],[-75.81,-12.023],[-75.89,-11.988],[-75.937,-11.99],[-76.003,-12.016],[-76.027,-12.003],[-76.074,-11.903],[-76.135,-11.858],[-76.155,-11.804],[-76.206,-11.752],[-76.22,-11.652],[-76.22,-11.607],[-76.228,-11.586],[-76.26,-11.571],[-76.296,-11.584],[-76.317,-11.561],[-76.353,-11.54],[-76.378,-11.504],[-76.414,-11.381],[-76.427,-11.36],[-76.476,-11.312],[-76.485,-11.269],[-76.493,-11.167],[-76.488,-11.098],[-76.407,-11.103],[-76.279,-11.083],[-76.27,-11.045],[-76.281,-10.939],[-76.274,-10.905],[-76.199,-10.921],[-76.176,-10.92],[-76.125,-10.904],[-76.045,-10.849],[-76.036,-10.851],[-76.013,-10.882],[-75.993,-10.89],[-75.754,-10.885],[-75.446,-10.793],[-75.312,-10.786],[-75.278,-10.77],[-75.124,-10.732],[-75.06,-10.687],[-75.025,-10.681],[-74.962,-10.705],[-74.909,-10.736],[-74.821,-10.805],[-74.78,-10.824],[-74.685,-10.851],[-74.509,-10.848],[-74.49,-10.943],[-74.474,-10.991],[-74.447,-11.032],[-74.414,-11.048],[-74.385,-11.05],[-74.344,-11.04],[-74.295,-11.013],[-74.198,-11.011],[-74.11,-10.983],[-74.033,-10.972],[-73.973,-10.976],[-73.928,-10.97],[-73.886,-10.94],[-73.811,-10.836],[-73.772,-10.768],[-73.759,-10.757],[-73.643,-10.79],[-73.603,-10.82],[-73.566,-10.866],[-73.496,-10.998],[-73.495,-11.041],[-73.516,-11.174],[-73.513,-11.195],[-73.478,-11.284],[-73.456,-11.311],[-73.435,-11.324]]]}},{"type":"Feature","properties":{"codigo":"13","nombre":"La Libertad"},"geometry":{"type":"Polygon","coordinates":[[[-78.649,-8.964],[-78.655,-8.933],[-78.682,-8.883],[-78.764,-8.775],[-78.762,-8.757],[-78.743,-8.74],[-78.741,-8.711],[-78.743,-8.673],[-78.759,-8.608],[-78.82,-8.528],[-78.859,-8.491],[-78.882,-8.475],[-78.913,-8.462],[-78.94,-8.436],[-78.935,-8.423],[-78.919,-8.427],[-78.907,-8.418],[-78.902,-8.377],[-78.964,-8.287],[-78.965,-8.265],[-78.99,-8.232],[-78.986,-8.217],[-79.018,-8.181],[-79.124,-8.09],[-79.125,-8.065],[-79.3,-7.939],[-79.352,-7.881],[-79.384,-7.834],[-79.396,-7.792],[-79.466,-7.716],[-79.437,-7.694],[-79.435,-7.674],[-79.448,-7.65],[-79.484,-7.593],[-79.583,-7.464],[-79.589,-7.411],[-79.574,-7.387],[-79.597,-7.331],[-79.596,-7.312],[-79.613,-7.266],[-79.697,-7.178],[-79.692,-7.161],[-79.667,-7.131],[-79.493,-6.964],[-79.469,-6.961],[-79.375,-6.988],[-79.348,-7.01],[-79.36,-7.162],[-79.343,-7.19],[-79.338,-7.214],[-79.351,-7.257],[-79.38,-7.299],[-79.386,-7.326],[-79.377,-7.342],[-79.352,-7.358],[-79.198,-7.403],[-79.12,-7.464],[-79.095,-7.493],[-79.059,-7.568],[-79.057,-7.589],[-79.069,-7.635],[-79.068,-7.651],[-79.011,-7.7],[-78.997,-7.703],[-78.967,-7.662],[-78.96,-7.633],[-78.947,-7.613],[-78.904,-7.59],[-78.853,-7.588],[-78.784,-7.554],[-78.734,-7.568],[-78.703,-7.585],[-78.666,-7.572],[-78.618,-7.568],[-78.586,-7.574],[-78.492,-7.641],[-78.447,-7.65],[-78.405,-7.643],[-78.386,-7.652],[-78.355,-7.685],[-78.304,-7.706],[-78.294,-7.768],[-78.226,-7.75],[-78.141,-7.673],[-78.128,-7.667],[-78.116,-7.667],[-78.086,-7.695],[-78.073,-7.698],[-78.004,-7.674],[-77.942,-7.67],[-77.935,-7.662],[-77.915,-7.6],[-77.923,-7.521],[-77.918,-7.509],[-77.851,-7.47],[-77.794,-7.464],[-77.754,-7.468],[-77.771,-7.433],[-77.84,-7.377],[-77.849,-7.295],[-77.867,-7.289],[-77.874,-7.275],[-77.87,-7.234],[-77.899,-7.21],[-77.906,-7.187],[-77.936,-7.158],[-77.954,-7.075],[-77.972,-7.047],[-77.977,-7.028],[-77.992,-7.013],[-77.891,-6.987],[-77.799,-7.001],[-77.742,-6.994],[-77.707,-7.048],[-77.682,-7.122],[-77.62,-7.169],[-77.601,-7.195],[-77.603,-7.228],[-77.629,-7.282],[-77.621,-7.338],[-77.593,-7.401],[-77.551,-7.455],[-77.523,-7.475],[-77.45,-7.572],[-77.45,-7.607],[-77.472,-7.662],[-77.476,-7.721],[-77.458,-7.804],[-77.393,-7.914],[-77.388,-7.96],[-77.405,-8.0],[-77.4,-8.011],[-77.347,-8.077],[-77.32,-8.083],[-77.286,-8.078],[-77.267,-8.068],[-77.232,-8.07],[-77.125,-8.101],[-77.028,-8.138],[-76.975,-8.17],[-76.911,-8.247],[-76.901,-8.285],[-76.879,-8.512],[-76.871,-8.536],[-76.856,-8.556],[-76.885,-8.604],[-76.896,-8.61],[-76.911,-8.612],[-76.953,-8.599],[-76.995,-8.602],[-77.008,-8.582],[-77.016,-8.535],[-77.036,-8.499],[-77.064,-8.499],[-77.126,-8.524],[-77.167,-8.532],[-77.323,-8.534],[-77.322,-8.497],[-77.35,-8.435],[-77.421,-8.347],[-77.484,-8.249],[-77.503,-8.231],[-77.534,-8.218],[-77.605,-8.152],[-77.62,-8.13],[-77.628,-8.106],[-77.62,-8.083],[-77.648,-8.048],[-77.652,-8.029],[-77.647,-8.011],[-77.683,-8.033],[-77.793,-8.074],[-77.834,-8.074],[-77.898,-8.064],[-77.914,-8.085],[-77.93,-8.134],[-77.957,-8.171],[-78.12,-8.312],[-78.13,-8.349],[-78.151,-8.382],[-78.162,-8.429],[-78.236,-8.542],[-78.223,-8.598],[-78.254,-8.658],[-78.342,-8.67],[-78.395,-8.708],[-78.537,-8.755],[-78.575,-8.783],[-78.597,-8.825],[-78.607,-8.91],[-78.617,-8.944],[-78.631,-8.96],[-78.649,-8.964]]]}},{"type":"Feature","properties":{"codigo":"14","nombre":"Lambayeque"},"geometry":{"type":"Polygon","coordinates":[[[-79.692,-7.161],[-79.689,-7.131],[-79.708,-7.107],[-79.866,-6.95],[-79.877,-6.929],[-79.932,-6.883],[-79.945,-6.852],[-79.949,-6.82],[-79.965,-6.787],[-80.005,-6.741],[-80.119,-6.651],[-80.169,-6.619],[-80.298,-6.544],[-80.631,-6.378],[-80.574,-6.318],[-80.489,-6.191],[-80.472,-6.139],[-80.45,-6.1],[-80.329,-5.959],[-80.304,-5.943],[-79.994,-5.854],[-79.95,-5.822],[-79.94,-5.776],[-79.943,-5.672],[-79.96,-5.574],[-79.949,-5.547],[-79.919,-5.566],[-79.803,-5.664],[-79.747,-5.756],[-79.771,-5.81],[-79.765,-5.841],[-79.688,-5.865],[-79.665,-5.888],[-79.638,-5.934],[-79.597,-5.943],[-79.529,-5.933],[-79.47,-5.958],[-79.437,-6.001],[-79.39,-5.985],[-79.373,-5.993],[-79.364,-6.015],[-79.332,-5.987],[-79.309,-5.982],[-79.288,-5.998],[-79.231,-6.02],[-79.217,-6.037],[-79.219,-6.059],[-79.229,-6.077],[-79.287,-6.131],[-79.297,-6.149],[-79.293,-6.173],[-79.255,-6.192],[-79.25,-6.201],[-79.26,-6.241],[-79.294,-6.279],[-79.375,-6.294],[-79.414,-6.31],[-79.451,-6.345],[-79.464,-6.384],[-79.44,-6.428],[-79.452,-6.474],[-79.441,-6.528],[-79.432,-6.535],[-79.4,-6.535],[-79.387,-6.542],[-79.371,-6.565],[-79.335,-6.655],[-79.321,-6.671],[-79.308,-6.679],[-79.261,-6.678],[-79.231,-6.693],[-79.174,-6.709],[-79.163,-6.73],[-79.166,-6.765],[-79.179,-6.78],[-79.21,-6.796],[-79.243,-6.843],[-79.316,-6.887],[-79.32,-6.897],[-79.318,-6.978],[-79.329,-7.006],[-79.348,-7.01],[-79.375,-6.988],[-79.469,-6.961],[-79.493,-6.964],[-79.692,-7.161]]]}},{"type":"Feature","properties":{"codigo":"15","nombre":"Lima"},"geometry":{"type":"Polygon","coordinates":[[[-76.812,-12.483],[-76.791,-12.457],[-76.782,-12.419],[-76.791,-12.381],[-76.825,-12.352],[-76.854,-12.303],[-76.949,-12.25],[-77.017,-12.226],[-77.045,-12.195],[-77.047,-12.181],[-77.038,-12.154],[-77.054,-12.114],[-77.089,-12.089],[-77.114,-12.081],[-77.108,-12.042],[-77.112,-12.019],[-77.141,-11.999],[-77.146,-11.932],[-77.162,-11.879],[-77.182,-11.846],[-77.187,-11.825],[-77.181,-11.801],[-77.196,-11.777],[-77.196,-11.768],[-77.178,-11.77],[-77.167,-11.757],[-77.171,-11.736],[-77.195,-11.691],[-77.211,-11.646],[-77.225,-11.627],[-77.264,-11.604],[-77.285,-11.575],[-77.278,-11.566],[-77.282,-11.549],[-77.32,-11.494],[-77.34,-11.486],[-77.36,-11.461],[-77.421,-11.431],[-77.453,-11.404],[-77.609,-11.322],[-77.647,-11.292],[-77.652,-11.237],[-77.645,-11.231],[-77.648,-11.222],[-77.64,-11.214],[-77.619,-11.216],[-77.598,-11.207],[-77.595,-11.165],[-77.619,-11.127],[-77.613,-11.115],[-77.633,-11.093],[-77.629,-11.083],[-77.639,-11.065],[-77.634,-11.057],[-77.661,-11.014],[-77.647,-10.996],[-77.664,-10.96],[-77.663,-10.947],[-77.712,-10.868],[-77.709,-10.852],[-77.753,-10.816],[-77.748,-10.792],[-77.765,-10.769],[-77.764,-10.762],[-77.808,-10.724],[-77.819,-10.701],[-77.849,-10.674],[-77.891,-10.603],[-77.863,-10.581],[-77.831,-10.568],[-77.814,-10.549],[-77.802,-10.518],[-77.807,-10.476],[-77.79,-10.425],[-77.781,-10.367],[-77.757,-10.36],[-77.7,-10.366],[-77.681,-10.387],[-77.672,-10.407],[-77.685,-10.443],[-77.697,-10.46],[-77.751,-10.501],[-77.754,-10.521],[-77.729,-10.534],[-77.668,-10.536],[-77.64,-10.563],[-77.602,-10.581],[-77.595,-10.603],[-77.606,-10.654],[-77.593,-10.705],[-77.593,-10.737],[-77.588,-10.744],[-77.509,-10.748],[-77.442,-10.726],[-77.41,-10.705],[-77.375,-10.642],[-77.273,-10.584],[-77.197,-10.518],[-77.165,-10.466],[-77.158,-10.405],[-77.15,-10.385],[-77.106,-10.358],[-76.932,-10.287],[-76.927,-10.319],[-76.911,-10.341],[-76.861,-10.346],[-76.83,-10.362],[-76.813,-10.417],[-76.775,-10.441],[-76.75,-10.444],[-76.725,-10.485],[-76.698,-10.582],[-76.649,-10.679],[-76.638,-10.742],[-76.573,-10.829],[-76.566,-10.994],[-76.512,-11.031],[-76.498,-11.045],[-76.487,-11.07],[-76.493,-11.167],[-76.485,-11.269],[-76.476,-11.312],[-76.427,-11.36],[-76.414,-11.381],[-76.378,-11.504],[-76.353,-11.54],[-76.317,-11.561],[-76.296,-11.584],[-76.26,-11.571],[-76.228,-11.586],[-76.22,-11.607],[-76.22,-11.652],[-76.206,-11.752],[-76.155,-11.804],[-76.135,-11.858],[-76.074,-11.903],[-76.036,-11.991],[-76.012,-12.015],[-75.985,-12.012],[-75.923,-11.987],[-75.89,-11.988],[-75.81,-12.023],[-75.766,-12.051],[-75.689,-12.079],[-75.641,-12.118],[-75.63,-12.143],[-75.649,-12.179],[-75.646,-12.199],[-75.563,-12.365],[-75.55,-12.38],[-75.538,-12.417],[-75.546,-12.505],[-75.567,-12.561],[-75.574,-12.609],[-75.569,-12.621],[-75.523,-12.645],[-75.467,-12.687],[-75.467,-12.716],[-75.516,-12.796],[-75.602,-12.867],[-75.635,-12.982],[-75.702,-13.016],[-75.797,-13.029],[-75.865,-13.031],[-75.952,-13.0],[-75.967,-13.016],[-75.981,-13.049],[-75.998,-13.071],[-76.14,-13.185],[-76.202,-13.287],[-76.249,-13.32],[-76.307,-13.257],[-76.483,-13.036],[-76.505,-12.99],[-76.516,-12.946],[-76.512,-12.911],[-76.516,-12.87],[-76.542,-12.832],[-76.611,-12.774],[-76.63,-12.751],[-76.682,-12.655],[-76.681,-12.619],[-76.736,-12.552],[-76.799,-12.509],[-76.812,-12.483]]]}},{"type":"Feature","properties":{"codigo":"16","nombre":"Loreto"},"geometry":{"type":"Polygon","coordinates":[[[-75.207,-0.029],[-75.142,-0.043],[-75.121,-0.054],[-75.102,-0.069],[-75.051,-0.134],[-75.015,-0.141],[-74.968,-0.19],[-74.933,-0.209],[-74.873,-0.222],[-74.837,-0.173],[-74.825,-0.17],[-74.789,-0.209],[-74.755,-0.278],[-74.783,-0.299],[-74.791,-0.313],[-74.718,-0.327],[-74.687,-0.353],[-74.673,-0.354],[-74.642,-0.34],[-74.604,-0.395],[-74.562,-0.439],[-74.476,-0.496],[-74.442,-0.536],[-74.418,-0.543],[-74.413,-0.573],[-74.365,-0.676],[-74.385,-0.703],[-74.385,-0.722],[-74.344,-0.774],[-74.303,-0.785],[-74.311,-0.801],[-74.289,-0.836],[-74.295,-0.847],[-74.338,-0.847],[-74.344,-0.859],[-74.303,-0.898],[-74.289,-0.943],[-74.267,-0.972],[-74.24,-0.987],[-74.181,-0.998],[-74.12,-1.021],[-74.092,-1.02],[-74.077,-0.991],[-74.065,-1.001],[-74.037,-1.08],[-74.017,-1.092],[-73.983,-1.066],[-73.973,-1.082],[-73.981,-1.107],[-73.968,-1.115],[-73.936,-1.108],[-73.92,-1.114],[-73.881,-1.191],[-73.857,-1.211],[-73.803,-1.224],[-73.786,-1.214],[-73.77,-1.189],[-73.755,-1.183],[-73.732,-1.217],[-73.637,-1.255],[-73.618,-1.306],[-73.597,-1.306],[-73.589,-1.35],[-73.579,-1.365],[-73.563,-1.372],[-73.583,-1.402],[-73.574,-1.417],[-73.537,-1.434],[-73.497,-1.478],[-73.485,-1.572],[-73.509,-1.587],[-73.517,-1.602],[-73.529,-1.635],[-73.531,-1.674],[-73.511,-1.699],[-73.446,-1.738],[-73.44,-1.759],[-73.387,-1.761],[-73.351,-1.791],[-73.34,-1.792],[-73.317,-1.765],[-73.268,-1.772],[-73.261,-1.769],[-73.257,-1.742],[-73.247,-1.742],[-73.22,-1.772],[-73.193,-1.789],[-73.186,-1.8],[-73.194,-1.837],[-73.159,-1.895],[-73.171,-1.93],[-73.169,-1.959],[-73.145,-1.998],[-73.125,-2.061],[-73.111,-2.073],[-73.15,-2.144],[-73.195,-2.187],[-73.198,-2.214],[-73.166,-2.256],[-73.159,-2.293],[-73.142,-2.304],[-73.099,-2.315],[-73.084,-2.345],[-73.071,-2.333],[-73.056,-2.3],[-72.988,-2.338],[-72.97,-2.356],[-72.953,-2.402],[-72.935,-2.425],[-72.87,-2.412],[-72.858,-2.4],[-72.805,-2.378],[-72.762,-2.402],[-72.754,-2.381],[-72.734,-2.368],[-72.725,-2.383],[-72.718,-2.42],[-72.712,-2.422],[-72.683,-2.405],[-72.644,-2.334],[-72.608,-2.346],[-72.563,-2.383],[-72.442,-2.405],[-72.414,-2.437],[-72.378,-2.451],[-72.284,-2.433],[-72.282,-2.406],[-72.251,-2.396],[-72.176,-2.41],[-72.161,-2.406],[-72.089,-2.331],[-72.062,-2.32],[-71.966,-2.328],[-71.949,-2.324],[-71.936,-2.312],[-71.932,-2.29],[-71.877,-2.245],[-71.836,-2.18],[-71.826,-2.179],[-71.746,-2.132],[-71.738,-2.138],[-71.74,-2.173],[-71.731,-2.19],[-71.712,-2.187],[-71.679,-2.17],[-71.655,-2.174],[-71.596,-2.211],[-71.538,-2.223],[-71.527,-2.232],[-71.522,-2.25],[-71.521,-2.292],[-71.514,-2.307],[-71.498,-2.315],[-71.481,-2.266],[-71.467,-2.251],[-71.456,-2.255],[-71.412,-2.327],[-71.432,-2.355],[-71.421,-2.376],[-71.387,-2.369],[-71.315,-2.334],[-71.308,-2.348],[-71.253,-2.327],[-71.22,-2.342],[-71.209,-2.339],[-71.162,-2.31],[-71.143,-2.263],[-71.12,-2.252],[-71.079,-2.248],[-71.054,-2.263],[-71.03,-2.264],[-71.021,-2.259],[-71.032,-2.211],[-71.021,-2.197],[-70.993,-2.197],[-70.925,-2.22],[-70.905,-2.211],[-70.874,-2.23],[-70.822,-2.285],[-70.788,-2.307],[-70.707,-2.328],[-70.699,-2.341],[-70.699,-2.37],[-70.664,-2.398],[-70.654,-2.445],[-70.648,-2.451],[-70.599,-2.447],[-70.596,-2.417],[-70.579,-2.405],[-70.538,-2.436],[-70.484,-2.453],[-70.472,-2.463],[-70.457,-2.493],[-70.445,-2.499],[-70.4,-2.485],[-70.358,-2.487],[-70.345,-2.497],[-70.35,-2.518],[-70.376,-2.533],[-70.365,-2.558],[-70.335,-2.554],[-70.296,-2.535],[-70.274,-2.546],[-70.236,-2.625],[-70.218,-2.632],[-70.184,-2.62],[-70.164,-2.635],[-70.16,-2.664],[-70.15,-2.669],[-70.142,-2.667],[-70.126,-2.639],[-70.106,-2.625],[-70.095,-2.633],[-70.076,-2.691],[-70.051,-2.715],[-70.734,-3.782],[-70.691,-3.787],[-70.544,-3.865],[-70.491,-3.878],[-70.464,-3.879],[-70.439,-3.868],[-70.378,-3.819],[-70.35,-3.816],[-70.311,-3.829],[-70.274,-3.857],[-70.217,-3.925],[-70.188,-4.029],[-70.162,-4.056],[-70.06,-4.107],[-70.01,-4.155],[-69.965,-4.236],[-69.963,-4.264],[-69.972,-4.291],[-69.989,-4.315],[-70.023,-4.339],[-70.037,-4.341],[-70.051,-4.337],[-70.076,-4.316],[-70.097,-4.266],[-70.117,-4.258],[-70.139,-4.26],[-70.157,-4.27],[-70.187,-4.326],[-70.206,-4.343],[-70.231,-4.304],[-70.258,-4.299],[-70.317,-4.247],[-70.311,-4.171],[-70.331,-4.143],[-70.343,-4.139],[-70.361,-4.168],[-70.374,-4.165],[-70.399,-4.142],[-70.43,-4.134],[-70.46,-4.145],[-70.501,-4.177],[-70.516,-4.182],[-70.526,-4.176],[-70.534,-4.147],[-70.55,-4.141],[-70.566,-4.149],[-70.585,-4.195],[-70.633,-4.167],[-70.631,-4.119],[-70.647,-4.116],[-70.663,-4.122],[-70.683,-4.164],[-70.694,-4.172],[-70.774,-4.155],[-70.832,-4.179],[-70.845,-4.191],[-70.848,-4.204],[-70.84,-4.229],[-70.843,-4.238],[-70.874,-4.251],[-70.896,-4.3],[-70.926,-4.329],[-70.969,-4.385],[-71.005,-4.348],[-71.01,-4.37],[-71.029,-4.386],[-71.082,-4.364],[-71.106,-4.374],[-71.128,-4.402],[-71.152,-4.392],[-71.17,-4.363],[-71.186,-4.372],[-71.214,-4.411],[-71.242,-4.38],[-71.265,-4.375],[-71.288,-4.381],[-71.305,-4.395],[-71.305,-4.427],[-71.315,-4.44],[-71.331,-4.435],[-71.363,-4.459],[-71.387,-4.435],[-71.477,-4.441],[-71.506,-4.449],[-71.525,-4.485],[-71.572,-4.481],[-71.617,-4.5],[-71.613,-4.479],[-71.644,-4.502],[-71.665,-4.508],[-71.699,-4.482],[-71.74,-4.496],[-71.785,-4.481],[-71.793,-4.485],[-71.801,-4.502],[-71.907,-4.518],[-71.98,-4.582],[-72.01,-4.592],[-72.036,-4.612],[-72.071,-4.605],[-72.108,-4.664],[-72.251,-4.759],[-72.269,-4.765],[-72.332,-4.763],[-72.345,-4.783],[-72.386,-4.794],[-72.397,-4.806],[-72.404,-4.86],[-72.415,-4.876],[-72.453,-4.899],[-72.476,-4.902],[-72.481,-4.923],[-72.495,-4.947],[-72.529,-4.95],[-72.546,-4.958],[-72.587,-4.997],[-72.614,-5.01],[-72.627,-5.022],[-72.635,-5.052],[-72.645,-5.061],[-72.708,-5.063],[-72.748,-5.055],[-72.773,-5.081],[-72.831,-5.097],[-72.854,-5.093],[-72.859,-5.116],[-72.918,-5.132],[-72.922,-5.147],[-72.9,-5.195],[-72.897,-5.272],[-72.924,-5.314],[-72.935,-5.372],[-72.974,-5.466],[-72.96,-5.531],[-72.96,-5.559],[-72.977,-5.652],[-73.001,-5.709],[-73.106,-5.847],[-73.14,-5.879],[-73.235,-6.078],[-73.235,-6.124],[-73.226,-6.148],[-73.178,-6.202],[-73.172,-6.22],[-73.156,-6.323],[-73.127,-6.391],[-73.132,-6.435],[-73.171,-6.517],[-73.199,-6.546],[-73.234,-6.564],[-73.278,-6.576],[-73.349,-6.576],[-73.371,-6.584],[-73.513,-6.698],[-73.594,-6.744],[-73.672,-6.801],[-73.685,-6.812],[-73.707,-6.85],[-73.759,-6.887],[-73.765,-6.904],[-73.768,-6.959],[-73.812,-7.103],[-73.804,-7.126],[-73.735,-7.225],[-73.713,-7.305],[-73.725,-7.325],[-73.761,-7.337],[-73.826,-7.337],[-73.902,-7.373],[-73.961,-7.356],[-73.983,-7.356],[-73.979,-7.375],[-73.951,-7.423],[-73.944,-7.449],[-73.958,-7.48],[-73.959,-7.502],[-73.971,-7.524],[-73.984,-7.529],[-74.021,-7.5],[-74.067,-7.478],[-74.231,-7.417],[-74.308,-7.4],[-74.377,-7.4],[-74.423,-7.385],[-74.519,-7.326],[-74.558,-7.32],[-74.588,-7.328],[-74.608,-7.363],[-74.608,-7.382],[-74.587,-7.439],[-74.562,-7.573],[-74.565,-7.672],[-74.549,-7.762],[-74.555,-7.868],[-74.584,-7.909],[-74.691,-7.964],[-74.918,-8.002],[-75.0,-8.029],[-75.091,-8.086],[-75.136,-8.106],[-75.184,-8.116],[-75.31,-8.117],[-75.339,-8.103],[-75.349,-8.105],[-75.362,-8.117],[-75.392,-8.193],[-75.401,-8.2],[-75.464,-8.209],[-75.496,-8.234],[-75.506,-8.254],[-75.509,-8.292],[-75.499,-8.33],[-75.475,-8.369],[-75.423,-8.43],[-75.412,-8.458],[-75.416,-8.472],[-75.429,-8.481],[-75.452,-8.481],[-75.473,-8.473],[-75.574,-8.395],[-75.604,-8.383],[-75.625,-8.384],[-75.643,-8.392],[-75.701,-8.459],[-75.77,-8.504],[-75.873,-8.598],[-75.974,-8.645],[-75.925,-8.472],[-75.901,-8.349],[-75.789,-8.205],[-75.777,-8.174],[-75.778,-8.149],[-75.782,-8.114],[-75.815,-8.014],[-76.058,-7.501],[-76.08,-7.436],[-76.098,-7.328],[-76.085,-7.109],[-76.087,-7.074],[-76.11,-6.993],[-76.093,-6.939],[-76.043,-6.833],[-76.011,-6.785],[-75.977,-6.762],[-75.935,-6.753],[-75.883,-6.757],[-75.845,-6.767],[-75.794,-6.795],[-75.769,-6.816],[-75.671,-6.935],[-75.643,-6.943],[-75.628,-6.941],[-75.604,-6.925],[-75.518,-6.784],[-75.494,-6.691],[-75.496,-6.644],[-75.466,-6.357],[-75.472,-6.319],[-75.507,-6.259],[-75.575,-6.19],[-75.668,-6.147],[-75.845,-6.108],[-75.911,-6.104],[-76.063,-6.12],[-76.121,-6.106],[-76.159,-6.082],[-76.238,-6.001],[-76.285,-5.941],[-76.316,-5.921],[-76.354,-5.916],[-76.384,-5.926],[-76.53,-6.028],[-76.557,-6.042],[-76.606,-6.049],[-76.655,-6.038],[-76.703,-6.01],[-76.734,-5.977],[-76.758,-5.931],[-76.79,-5.83],[-76.806,-5.799],[-76.834,-5.766],[-76.885,-5.727],[-76.934,-5.7],[-76.968,-5.69],[-77.176,-5.68],[-77.205,-5.673],[-77.244,-5.653],[-77.296,-5.609],[-77.367,-5.537],[-77.431,-5.503],[-77.548,-5.458],[-77.619,-5.41],[-77.64,-5.385],[-77.711,-5.228],[-77.733,-5.133],[-77.747,-4.991],[-77.774,-4.896],[-77.777,-4.85],[-77.765,-4.763],[-77.741,-4.703],[-77.705,-4.652],[-77.665,-4.611],[-77.579,-4.439],[-77.567,-4.337],[-77.57,-4.274],[-77.558,-4.1],[-77.534,-4.021],[-77.551,-3.967],[-77.564,-3.886],[-77.581,-3.849],[-77.625,-3.788],[-77.634,-3.764],[-77.64,-3.717],[-77.635,-3.646],[-77.658,-3.57],[-77.67,-3.48],[-77.709,-3.373],[-77.759,-3.287],[-77.768,-3.173],[-77.795,-3.077],[-77.81,-2.967],[-76.685,-2.574],[-76.625,-2.538],[-76.091,-2.129],[-75.651,-1.617],[-75.573,-1.537],[-75.406,-0.915],[-75.349,-0.975],[-75.227,-0.97],[-75.252,-0.933],[-75.253,-0.898],[-75.297,-0.747],[-75.288,-0.706],[-75.294,-0.668],[-75.289,-0.656],[-75.267,-0.643],[-75.256,-0.624],[-75.261,-0.543],[-75.272,-0.526],[-75.291,-0.528],[-75.304,-0.507],[-75.347,-0.471],[-75.376,-0.467],[-75.406,-0.442],[-75.434,-0.403],[-75.453,-0.361],[-75.485,-0.248],[-75.496,-0.233],[-75.546,-0.21],[-75.579,-0.183],[-75.62,-0.181],[-75.638,-0.151],[-75.643,-0.129],[-75.638,-0.111],[-75.623,-0.107],[-75.571,-0.122],[-75.526,-0.123],[-75.455,-0.161],[-75.43,-0.164],[-75.403,-0.146],[-75.344,-0.149],[-75.318,-0.138],[-75.283,-0.107],[-75.253,-0.09],[-75.24,-0.075],[-75.232,-0.043],[-75.222,-0.032],[-75.207,-0.029]]]}},{"type":"Feature","properties":{"codigo":"17","nombre":"Madre de Dios"},"geometry":{"type":"Polygon","coordinates":[[[-69.72,-10.965],[-69.578,-10.952],[-68.684,-12.502],[-68.694,-12.507],[-68.726,-12.566],[-68.77,-12.594],[-68.793,-12.62],[-68.795,-12.637],[-68.785,-12.646],[-68.753,-12.655],[-68.743,-12.666],[-68.766,-12.711],[-68.774,-12.719],[-68.856,-12.741],[-68.877,-12.755],[-68.905,-12.804],[-68.927,-12.801],[-68.949,-12.844],[-68.981,-12.868],[-68.986,-12.933],[-68.974,-13.032],[-69.605,-13.343],[-69.621,-13.347],[-69.648,-13.342],[-70.321,-13.015],[-70.338,-13.011],[-70.356,-13.025],[-70.421,-13.014],[-70.474,-13.02],[-70.521,-13.01],[-70.567,-13.01],[-70.577,-13.015],[-70.582,-13.029],[-70.577,-13.042],[-70.529,-13.078],[-70.521,-13.1],[-70.553,-13.118],[-70.678,-13.125],[-70.959,-13.076],[-71.019,-13.074],[-71.175,-12.982],[-71.327,-12.941],[-71.432,-12.902],[-71.486,-12.869],[-71.611,-12.868],[-71.825,-12.798],[-71.855,-12.777],[-71.913,-12.668],[-71.913,-12.642],[-71.891,-12.58],[-71.891,-12.558],[-71.912,-12.478],[-71.976,-12.344],[-71.998,-12.324],[-72.066,-12.31],[-72.106,-12.288],[-72.125,-12.259],[-72.153,-12.156],[-72.172,-12.117],[-72.339,-12.023],[-72.363,-11.996],[-72.384,-11.887],[-72.35,-11.721],[-72.332,-11.667],[-72.202,-11.427],[-72.185,-11.374],[-72.181,-11.29],[-72.171,-11.24],[-72.086,-11.085],[-72.083,-11.069],[-72.09,-11.039],[-72.145,-10.972],[-72.145,-10.951],[-72.117,-10.933],[-72.081,-10.936],[-72.042,-10.948],[-71.993,-10.984],[-71.968,-10.99],[-71.806,-10.98],[-71.351,-10.749],[-71.265,-10.724],[-71.206,-10.691],[-70.994,-10.533],[-70.898,-10.421],[-70.867,-10.374],[-70.855,-10.341],[-70.846,-10.307],[-70.837,-10.168],[-70.818,-10.102],[-70.771,-10.052],[-70.639,-9.956],[-70.641,-11.011],[-70.556,-10.943],[-70.534,-10.938],[-70.437,-11.037],[-70.391,-11.059],[-70.341,-11.067],[-70.289,-11.065],[-70.199,-11.041],[-69.956,-10.919],[-69.876,-10.928],[-69.808,-10.927],[-69.753,-10.958],[-69.72,-10.965]]]}},{"type":"Feature","properties":{"codigo":"18","nombre":"Moquegua"},"geometry":{"type":"Polygon","coordinates":[[[-71.176,-17.793],[-71.219,-17.752],[-71.268,-17.731],[-71.326,-17.695],[-71.347,-17.691],[-71.384,-17.698],[-71.385,-17.687],[-71.364,-17.656],[-71.36,-17.633],[-71.378,-17.492],[-71.4,-17.4],[-71.419,-17.389],[-71.446,-17.355],[-71.481,-17.331],[-71.488,-17.318],[-71.434,-17.276],[-71.423,-17.259],[-71.404,-17.208],[-71.373,-17.168],[-71.346,-17.07],[-71.332,-17.045],[-71.347,-17.024],[-71.409,-16.979],[-71.447,-16.888],[-71.448,-16.844],[-71.429,-16.815],[-71.378,-16.771],[-71.322,-16.749],[-71.306,-16.735],[-71.301,-16.694],[-71.307,-16.625],[-71.205,-16.499],[-71.133,-16.467],[-71.099,-16.467],[-71.055,-16.457],[-71.009,-16.486],[-70.959,-16.463],[-70.953,-16.433],[-70.963,-16.387],[-70.959,-16.358],[-70.945,-16.336],[-70.875,-16.263],[-70.864,-16.206],[-70.85,-15.988],[-70.828,-15.985],[-70.806,-15.994],[-70.739,-16.04],[-70.687,-16.057],[-70.638,-16.046],[-70.599,-16.022],[-70.568,-16.011],[-70.504,-16.048],[-70.431,-16.05],[-70.417,-16.056],[-70.406,-16.067],[-70.397,-16.096],[-70.399,-16.159],[-70.394,-16.179],[-70.343,-16.213],[-70.33,-16.239],[-70.352,-16.327],[-70.305,-16.464],[-70.292,-16.479],[-70.239,-16.511],[-70.2,-16.569],[-70.132,-16.634],[-70.107,-16.647],[-70.044,-16.656],[-70.021,-16.69],[-70.028,-16.707],[-70.094,-16.764],[-70.168,-16.789],[-70.18,-16.808],[-70.178,-16.87],[-70.2,-16.923],[-70.226,-16.94],[-70.256,-16.937],[-70.28,-16.92],[-70.314,-16.85],[-70.332,-16.83],[-70.356,-16.82],[-70.394,-16.817],[-70.433,-16.836],[-70.463,-16.87],[-70.49,-16.952],[-70.492,-16.973],[-70.475,-17.034],[-70.477,-17.06],[-70.516,-17.115],[-70.597,-17.204],[-70.687,-17.24],[-70.708,-17.258],[-70.747,-17.323],[-70.79,-17.374],[-70.808,-17.444],[-70.827,-17.48],[-70.892,-17.547],[-70.924,-17.616],[-70.948,-17.631],[-71.05,-17.67],[-71.089,-17.693],[-71.136,-17.73],[-71.176,-17.793]]]}},{"type":"Feature","properties":{"codigo":"19","nombre":"Pasco"},"geometry":{"type":"Polygon","coordinates":[[[-74.538,-9.65],[-74.502,-9.695],[-74.479,-9.743],[-74.44,-9.847],[-74.434,-9.88],[-74.438,-9.954],[-74.422,-10.0],[-74.362,-10.113],[-74.373,-10.3],[-74.311,-10.449],[-74.299,-10.497],[-74.28,-10.513],[-74.193,-10.547],[-74.167,-10.581],[-74.174,-10.603],[-74.23,-10.624],[-74.292,-10.661],[-74.413,-10.78],[-74.466,-10.825],[-74.509,-10.848],[-74.685,-10.851],[-74.78,-10.824],[-74.821,-10.805],[-74.909,-10.736],[-74.962,-10.705],[-75.011,-10.683],[-75.044,-10.682],[-75.083,-10.7],[-75.124,-10.732],[-75.278,-10.77],[-75.312,-10.786],[-75.446,-10.793],[-75.754,-10.885],[-75.993,-10.89],[-76.013,-10.882],[-76.036,-10.851],[-76.045,-10.849],[-76.125,-10.904],[-76.176,-10.92],[-76.199,-10.921],[-76.274,-10.905],[-76.281,-10.939],[-76.27,-11.045],[-76.279,-11.083],[-76.407,-11.103],[-76.488,-11.098],[-76.487,-11.07],[-76.498,-11.045],[-76.566,-10.994],[-76.573,-10.829],[-76.638,-10.742],[-76.655,-10.664],[-76.698,-10.582],[-76.716,-10.504],[-76.75,-10.444],[-76.657,-10.379],[-76.58,-10.28],[-76.513,-10.261],[-76.391,-10.262],[-76.35,-10.268],[-76.286,-10.303],[-76.253,-10.353],[-76.237,-10.363],[-76.035,-10.378],[-75.987,-10.396],[-75.946,-10.426],[-75.806,-10.364],[-75.779,-10.345],[-75.77,-10.33],[-75.792,-10.277],[-75.83,-10.075],[-75.82,-10.002],[-75.81,-9.978],[-75.8,-9.96],[-75.748,-9.921],[-75.707,-9.904],[-75.616,-9.892],[-75.495,-9.898],[-75.431,-9.892],[-75.353,-9.875],[-75.118,-9.774],[-74.983,-9.792],[-74.763,-9.754],[-74.538,-9.65]]]}},{"type":"Feature","properties":{"codigo":"20","nombre":"Piura"},"geometry":{"type":"MultiPolygon","coordinates":[[[[-80.514,-4.083],[-80.487,-4.131],[-80.491,-4.169],[-80.47,-4.213],[-80.435,-4.217],[-80.345,-4.198],[-80.356,-4.221],[-80.489,-4.396],[-80.492,-4.413],[-80.484,-4.434],[-80.47,-4.446],[-80.408,-4.478],[-80.383,-4.476],[-80.332,-4.446],[-80.255,-4.387],[-80.24,-4.37],[-80.222,-4.319],[-80.205,-4.298],[-80.14,-4.283],[-80.134,-4.294],[-80.08,-4.309],[-80.029,-4.36],[-79.982,-4.389],[-79.904,-4.399],[-79.833,-4.479],[-79.796,-4.485],[-79.729,-4.464],[-79.694,-4.444],[-79.658,-4.439],[-79.63,-4.452],[-79.58,-4.502],[-79.552,-4.52],[-79.528,-4.52],[-79.502,-4.541],[-79.527,-4.597],[-79.528,-4.618],[-79.499,-4.661],[-79.487,-4.72],[-79.461,-4.769],[-79.451,-4.81],[-79.395,-4.848],[-79.378,-4.885],[-79.341,-4.904],[-79.303,-4.961],[-79.28,-4.967],[-79.234,-4.966],[-79.266,-5.004],[-79.276,-5.043],[-79.309,-5.059],[-79.326,-5.097],[-79.381,-5.155],[-79.388,-5.172],[-79.39,-5.186],[-79.366,-5.243],[-79.362,-5.312],[-79.33,-5.342],[-79.321,-5.48],[-79.325,-5.501],[-79.378,-5.494],[-79.392,-5.499],[-79.409,-5.545],[-79.398,-5.606],[-79.419,-5.744],[-79.403,-5.784],[-79.393,-5.839],[-79.365,-5.867],[-79.355,-5.907],[-79.367,-5.922],[-79.451,-5.989],[-79.478,-5.952],[-79.529,-5.933],[-79.597,-5.943],[-79.638,-5.934],[-79.665,-5.888],[-79.688,-5.865],[-79.765,-5.841],[-79.771,-5.81],[-79.747,-5.756],[-79.803,-5.664],[-79.919,-5.566],[-79.949,-5.547],[-79.96,-5.574],[-79.943,-5.672],[-79.94,-5.776],[-79.95,-5.822],[-79.994,-5.854],[-80.304,-5.943],[-80.329,-5.959],[-80.45,-6.1],[-80.472,-6.139],[-80.489,-6.191],[-80.574,-6.318],[-80.631,-6.378],[-80.791,-6.3],[-80.853,-6.239],[-81.014,-6.139],[-81.101,-6.072],[-81.131,-6.035],[-81.151,-5.976],[-81.15,-5.883],[-81.129,-5.866],[-81.119,-5.84],[-81.096,-5.839],[-81.075,-5.787],[-81.057,-5.788],[-81.038,-5.818],[-80.972,-5.846],[-80.94,-5.851],[-80.903,-5.815],[-80.864,-5.744],[-80.856,-5.65],[-80.881,-5.574],[-80.932,-5.464],[-81.072,-5.319],[-81.094,-5.313],[-81.108,-5.317],[-81.132,-5.3],[-81.198,-5.208],[-81.187,-5.19],[-81.174,-5.185],[-81.166,-5.164],[-81.178,-5.143],[-81.177,-5.13],[-81.163,-5.126],[-81.171,-5.087],[-81.163,-5.073],[-81.147,-5.075],[-81.129,-5.065],[-81.113,-5.082],[-81.083,-5.079],[-81.068,-5.057],[-81.063,-5.022],[-81.085,-4.974],[-81.149,-4.917],[-81.223,-4.806],[-81.338,-4.678],[-81.333,-4.664],[-81.305,-4.644],[-81.317,-4.601],[-81.307,-4.534],[-81.329,-4.477],[-81.325,-4.462],[-81.294,-4.43],[-81.28,-4.396],[-81.279,-4.374],[-81.294,-4.318],[-81.264,-4.252],[-81.253,-4.239],[-81.166,-4.179],[-81.11,-4.108],[-81.073,-4.097],[-81.061,-4.084],[-80.995,-4.146],[-80.976,-4.157],[-80.928,-4.169],[-80.819,-4.165],[-80.677,-4.212],[-80.665,-4.207],[-80.638,-4.175],[-80.512,-4.065],[-80.514,-4.083]]],[[[-80.843,-6.382],[-80.855,-6.406],[-80.842,-6.429],[-80.84,-6.475],[-80.864,-6.476],[-80.867,-6.441],[-80.875,-6.433],[-80.868,-6.425],[-80.853,-6.375],[-80.843,-6.382]]]]}},{"type":"Feature","properties":{"codigo":"21","nombre":"Puno"},"geometry":{"type":"Polygon","coordinates":[[[-68.974,-13.032],[-68.98,-13.165],[-68.963,-13.284],[-68.974,-13.479],[-68.971,-13.501],[-68.986,-13.55],[-69.023,-13.597],[-69.024,-13.635],[-69.033,-13.646],[-69.044,-13.648],[-69.088,-13.644],[-69.102,-13.667],[-69.081,-13.695],[-69.016,-13.753],[-69.023,-13.806],[-69.01,-13.844],[-68.993,-13.87],[-68.983,-13.972],[-68.97,-13.991],[-68.916,-14.025],[-68.906,-14.039],[-68.869,-14.156],[-68.864,-14.191],[-68.884,-14.211],[-68.985,-14.228],[-69.01,-14.246],[-69.016,-14.263],[-69.016,-14.321],[-68.995,-14.359],[-68.99,-14.379],[-69.01,-14.397],[-69.095,-14.446],[-69.134,-14.491],[-69.164,-14.503],[-69.165,-14.566],[-69.17,-14.578],[-69.235,-14.574],[-69.248,-14.594],[-69.254,-14.722],[-69.268,-14.751],[-69.339,-14.775],[-69.361,-14.788],[-69.371,-14.802],[-69.368,-14.901],[-69.391,-14.964],[-69.384,-14.982],[-69.346,-15.016],[-69.289,-15.102],[-69.213,-15.161],[-69.148,-15.233],[-69.15,-15.252],[-69.166,-15.264],[-69.209,-15.264],[-69.223,-15.302],[-69.256,-15.313],[-69.291,-15.351],[-69.297,-15.367],[-69.286,-15.405],[-69.33,-15.424],[-69.343,-15.442],[-69.356,-15.501],[-69.421,-15.596],[-69.43,-15.626],[-69.424,-15.656],[-69.22,-16.153],[-69.185,-16.195],[-69.145,-16.223],[-69.121,-16.231],[-69.095,-16.231],[-69.054,-16.208],[-69.01,-16.219],[-68.982,-16.21],[-68.96,-16.223],[-68.919,-16.267],[-68.844,-16.302],[-68.833,-16.329],[-68.856,-16.363],[-69.002,-16.423],[-69.028,-16.454],[-69.039,-16.492],[-69.04,-16.581],[-69.035,-16.598],[-69.008,-16.634],[-69.037,-16.67],[-69.112,-16.711],[-69.166,-16.719],[-69.182,-16.729],[-69.224,-16.818],[-69.326,-16.922],[-69.364,-16.991],[-69.414,-17.022],[-69.417,-17.032],[-69.401,-17.047],[-69.406,-17.063],[-69.427,-17.087],[-69.51,-17.112],[-69.595,-17.18],[-69.623,-17.186],[-69.649,-17.263],[-69.664,-17.289],[-69.726,-17.3],[-69.758,-17.271],[-69.775,-17.242],[-69.791,-17.238],[-69.836,-17.248],[-69.885,-17.218],[-69.912,-17.21],[-69.989,-17.149],[-70.017,-17.138],[-70.094,-17.008],[-70.159,-16.914],[-70.181,-16.857],[-70.176,-16.799],[-70.156,-16.783],[-70.094,-16.764],[-70.028,-16.707],[-70.021,-16.69],[-70.044,-16.656],[-70.107,-16.647],[-70.132,-16.634],[-70.2,-16.569],[-70.239,-16.511],[-70.292,-16.479],[-70.305,-16.464],[-70.352,-16.327],[-70.33,-16.239],[-70.343,-16.213],[-70.394,-16.179],[-70.399,-16.159],[-70.397,-16.096],[-70.406,-16.067],[-70.431,-16.05],[-70.504,-16.048],[-70.568,-16.011],[-70.599,-16.022],[-70.638,-16.046],[-70.687,-16.057],[-70.739,-16.04],[-70.806,-15.994],[-70.828,-15.985],[-70.85,-15.988],[-70.837,-15.933],[-70.842,-15.908],[-70.883,-15.878],[-70.91,-15.825],[-70.937,-15.786],[-70.933,-15.758],[-70.903,-15.706],[-70.905,-15.68],[-70.923,-15.653],[-70.964,-15.62],[-71.01,-15.568],[-71.016,-15.543],[-71.011,-15.481],[-71.031,-15.448],[-71.025,-15.366],[-71.029,-15.334],[-70.988,-15.313],[-70.979,-15.288],[-70.976,-15.21],[-70.991,-15.151],[-71.01,-15.114],[-71.009,-15.078],[-71.0,-15.049],[-71.016,-15.019],[-71.015,-14.989],[-70.984,-14.936],[-70.987,-14.902],[-71.001,-14.852],[-70.992,-14.779],[-71.0,-14.768],[-71.021,-14.757],[-71.058,-14.756],[-71.077,-14.745],[-71.118,-14.691],[-71.126,-14.664],[-71.119,-14.649],[-71.054,-14.634],[-70.99,-14.574],[-70.989,-14.553],[-71.003,-14.518],[-70.979,-14.443],[-70.961,-14.43],[-70.909,-14.432],[-70.889,-14.41],[-70.856,-14.287],[-70.832,-14.227],[-70.809,-14.095],[-70.81,-14.072],[-70.82,-14.05],[-70.85,-14.012],[-70.83,-13.929],[-70.817,-13.826],[-70.802,-13.818],[-70.721,-13.805],[-70.682,-13.788],[-70.664,-13.76],[-70.57,-13.539],[-70.541,-13.488],[-70.403,-13.338],[-70.37,-13.254],[-70.369,-13.232],[-70.385,-13.172],[-70.382,-13.136],[-70.356,-13.025],[-70.338,-13.011],[-70.321,-13.015],[-69.648,-13.342],[-69.621,-13.347],[-68.974,-13.032]]]}},{"type":"Feature","properties":{"codigo":"22","nombre":"San Martín"},"geometry":{"type":"Polygon","coordinates":[[[-77.64,-5.385],[-77.619,-5.41],[-77.548,-5.458],[-77.431,-5.503],[-77.367,-5.537],[-77.296,-5.609],[-77.244,-5.653],[-77.205,-5.673],[-77.176,-5.68],[-76.968,-5.69],[-76.934,-5.7],[-76.885,-5.727],[-76.834,-5.766],[-76.806,-5.799],[-76.79,-5.83],[-76.758,-5.931],[-76.734,-5.977],[-76.703,-6.01],[-76.655,-6.038],[-76.606,-6.049],[-76.557,-6.042],[-76.53,-6.028],[-76.384,-5.926],[-76.354,-5.916],[-76.316,-5.921],[-76.285,-5.941],[-76.238,-6.001],[-76.159,-6.082],[-76.121,-6.106],[-76.063,-6.12],[-75.911,-6.104],[-75.845,-6.108],[-75.668,-6.147],[-75.575,-6.19],[-75.507,-6.259],[-75.479,-6.305],[-75.466,-6.357],[-75.496,-6.644],[-75.494,-6.691],[-75.518,-6.784],[-75.604,-6.925],[-75.628,-6.941],[-75.643,-6.943],[-75.671,-6.935],[-75.769,-6.816],[-75.794,-6.795],[-75.845,-6.767],[-75.883,-6.757],[-75.935,-6.753],[-75.977,-6.762],[-76.011,-6.785],[-76.043,-6.833],[-76.093,-6.939],[-76.11,-6.993],[-76.087,-7.074],[-76.085,-7.109],[-76.098,-7.328],[-76.08,-7.436],[-76.058,-7.501],[-75.815,-8.014],[-75.782,-8.114],[-75.777,-8.174],[-75.799,-8.219],[-75.901,-8.349],[-75.925,-8.472],[-75.953,-8.568],[-76.012,-8.607],[-76.079,-8.715],[-76.108,-8.735],[-76.146,-8.729],[-76.174,-8.697],[-76.179,-8.657],[-76.205,-8.575],[-76.216,-8.554],[-76.238,-8.533],[-76.249,-8.501],[-76.279,-8.471],[-76.287,-8.417],[-76.313,-8.38],[-76.342,-8.389],[-76.357,-8.41],[-76.364,-8.55],[-76.39,-8.592],[-76.458,-8.6],[-76.597,-8.578],[-76.739,-8.541],[-76.772,-8.538],[-76.856,-8.556],[-76.871,-8.536],[-76.879,-8.512],[-76.906,-8.262],[-76.911,-8.247],[-76.975,-8.17],[-77.047,-8.129],[-77.232,-8.07],[-77.267,-8.068],[-77.286,-8.078],[-77.32,-8.083],[-77.347,-8.077],[-77.404,-8.003],[-77.39,-7.969],[-77.389,-7.928],[-77.4,-7.899],[-77.44,-7.841],[-77.458,-7.804],[-77.476,-7.721],[-77.472,-7.662],[-77.45,-7.607],[-77.45,-7.572],[-77.523,-7.475],[-77.551,-7.455],[-77.593,-7.401],[-77.621,-7.338],[-77.629,-7.282],[-77.603,-7.228],[-77.601,-7.195],[-77.62,-7.169],[-77.682,-7.122],[-77.719,-7.022],[-77.775,-6.959],[-77.781,-6.921],[-77.778,-6.89],[-77.75,-6.803],[-77.738,-6.706],[-77.739,-6.648],[-77.732,-6.614],[-77.717,-6.588],[-77.69,-6.572],[-77.671,-6.575],[-77.6,-6.612],[-77.566,-6.618],[-77.513,-6.613],[-77.447,-6.617],[-77.379,-6.6],[-77.344,-6.574],[-77.309,-6.484],[-77.297,-6.468],[-77.189,-6.373],[-77.164,-6.34],[-77.165,-6.308],[-77.208,-6.186],[-77.255,-6.121],[-77.306,-6.09],[-77.358,-6.07],[-77.526,-6.024],[-77.554,-6.009],[-77.594,-5.961],[-77.62,-5.899],[-77.715,-5.723],[-77.725,-5.68],[-77.706,-5.652],[-77.699,-5.616],[-77.716,-5.502],[-77.713,-5.475],[-77.678,-5.416],[-77.64,-5.385]]]}},{"type":"Feature","properties":{"codigo":"23","nombre":"Tacna"},"geometry":{"type":"Polygon","coordinates":[[[-69.51,-17.507],[-69.638,-17.626],[-69.684,-17.656],[-69.729,-17.663],[-69.776,-17.657],[-69.818,-17.659],[-69.85,-17.692],[-69.858,-17.734],[-69.829,-17.804],[-69.813,-17.888],[-69.791,-17.925],[-69.78,-17.963],[-69.783,-17.982],[-69.844,-18.113],[-69.883,-18.164],[-69.988,-18.264],[-70.063,-18.281],[-70.134,-18.319],[-70.159,-18.326],[-70.211,-18.331],[-70.318,-18.321],[-70.369,-18.325],[-70.395,-18.338],[-70.531,-18.243],[-70.683,-18.162],[-70.733,-18.115],[-70.748,-18.094],[-70.768,-18.088],[-70.826,-18.037],[-70.879,-18.017],[-70.892,-18.006],[-70.915,-17.947],[-71.007,-17.89],[-71.087,-17.869],[-71.176,-17.793],[-71.136,-17.73],[-71.089,-17.693],[-71.05,-17.67],[-70.948,-17.631],[-70.924,-17.616],[-70.892,-17.547],[-70.827,-17.48],[-70.808,-17.444],[-70.79,-17.374],[-70.747,-17.323],[-70.708,-17.258],[-70.687,-17.24],[-70.597,-17.204],[-70.516,-17.115],[-70.477,-17.06],[-70.475,-17.034],[-70.492,-16.973],[-70.468,-16.882],[-70.433,-16.836],[-70.394,-16.817],[-70.356,-16.82],[-70.322,-16.838],[-70.289,-16.908],[-70.256,-16.937],[-70.226,-16.94],[-70.2,-16.923],[-70.178,-16.87],[-70.159,-16.914],[-70.094,-17.008],[-70.017,-17.138],[-69.989,-17.149],[-69.912,-17.21],[-69.885,-17.218],[-69.836,-17.248],[-69.791,-17.238],[-69.775,-17.242],[-69.758,-17.271],[-69.726,-17.3],[-69.664,-17.289],[-69.613,-17.295],[-69.597,-17.3],[-69.557,-17.331],[-69.523,-17.369],[-69.511,-17.399],[-69.51,-17.507]]]}},{"type":"Feature","properties":{"codigo":"24","nombre":"Tumbes"},"geometry":{"type":"Polygon","coordinates":[[[-80.165,-3.881],[-80.165,-3.89],[-80.181,-3.908],[-80.259,-3.944],[-80.305,-4.005],[-80.326,-4.015],[-80.407,-3.982],[-80.466,-3.988],[-80.492,-4.015],[-80.512,-4.065],[-80.672,-4.211],[-80.69,-4.21],[-80.819,-4.165],[-80.928,-4.169],[-80.976,-4.157],[-81.062,-4.086],[-80.993,-3.972],[-80.962,-3.939],[-80.868,-3.873],[-80.852,-3.808],[-80.834,-3.773],[-80.808,-3.739],[-80.772,-3.71],[-80.613,-3.616],[-80.585,-3.588],[-80.542,-3.526],[-80.536,-3.505],[-80.494,-3.489],[-80.424,-3.491],[-80.385,-3.479],[-80.368,-3.466],[-80.341,-3.393],[-80.28,-3.416],[-80.266,-3.426],[-80.274,-3.465],[-80.272,-3.486],[-80.249,-3.498],[-80.24,-3.514],[-80.25,-3.578],[-80.225,-3.592],[-80.216,-3.632],[-80.225,-3.681],[-80.217,-3.727],[-80.226,-3.749],[-80.222,-3.769],[-80.193,-3.822],[-80.189,-3.858],[-80.165,-3.881]]]}},{"type":"Feature","properties":{"codigo":"25","nombre":"Ucayali"},"geometry":{"type":"Polygon","coordinates":[[[-73.984,-7.529],[-74.018,-7.544],[-74.01,-7.561],[-73.969,-7.585],[-73.839,-7.721],[-73.811,-7.739],[-73.742,-7.764],[-73.712,-7.788],[-73.703,-7.828],[-73.714,-7.866],[-73.746,-7.886],[-73.795,-7.874],[-73.785,-7.94],[-73.779,-7.954],[-73.748,-7.977],[-73.668,-8.014],[-73.645,-8.068],[-73.601,-8.136],[-73.603,-8.212],[-73.562,-8.273],[-73.541,-8.359],[-73.447,-8.416],[-73.41,-8.456],[-73.371,-8.465],[-73.356,-8.48],[-73.348,-8.518],[-73.358,-8.563],[-73.351,-8.598],[-73.29,-8.67],[-73.269,-8.682],[-73.211,-8.694],[-73.175,-8.721],[-73.146,-8.782],[-73.069,-8.894],[-73.017,-8.93],[-72.976,-8.985],[-72.959,-9.086],[-72.972,-9.134],[-73.028,-9.183],[-73.034,-9.223],[-73.09,-9.244],[-73.141,-9.323],[-73.194,-9.376],[-73.215,-9.409],[-72.813,-9.411],[-72.692,-9.435],[-72.672,-9.447],[-72.656,-9.439],[-72.637,-9.443],[-72.536,-9.482],[-72.41,-9.486],[-72.345,-9.533],[-72.313,-9.533],[-72.307,-9.541],[-72.304,-9.601],[-72.268,-9.65],[-72.262,-9.667],[-72.277,-9.724],[-72.265,-9.762],[-72.195,-9.806],[-72.163,-9.877],[-72.163,-9.9],[-72.184,-9.929],[-72.185,-9.985],[-72.196,-10.006],[-71.391,-10.007],[-71.373,-10.002],[-71.354,-9.981],[-71.34,-9.98],[-71.313,-9.994],[-71.3,-9.993],[-71.245,-9.956],[-71.197,-9.94],[-71.161,-9.876],[-71.144,-9.863],[-71.077,-9.834],[-71.015,-9.817],[-70.997,-9.804],[-70.969,-9.755],[-70.92,-9.72],[-70.875,-9.66],[-70.825,-9.634],[-70.747,-9.565],[-70.681,-9.528],[-70.606,-9.449],[-70.587,-9.44],[-70.525,-9.431],[-70.524,-9.444],[-70.543,-9.493],[-70.562,-9.502],[-70.555,-9.516],[-70.568,-9.519],[-70.576,-9.529],[-70.578,-9.542],[-70.565,-9.565],[-70.624,-9.566],[-70.601,-9.635],[-70.56,-9.673],[-70.542,-9.708],[-70.543,-9.727],[-70.569,-9.779],[-70.58,-9.786],[-70.595,-9.779],[-70.615,-9.792],[-70.629,-9.812],[-70.638,-9.852],[-70.639,-9.956],[-70.771,-10.052],[-70.818,-10.102],[-70.837,-10.168],[-70.846,-10.307],[-70.867,-10.374],[-70.898,-10.421],[-70.994,-10.533],[-71.246,-10.715],[-71.351,-10.749],[-71.795,-10.976],[-71.829,-10.984],[-71.968,-10.99],[-72.001,-10.98],[-72.059,-10.941],[-72.117,-10.933],[-72.135,-10.94],[-72.145,-10.951],[-72.145,-10.972],[-72.09,-11.039],[-72.083,-11.069],[-72.086,-11.085],[-72.171,-11.24],[-72.18,-11.313],[-72.22,-11.304],[-72.257,-11.313],[-72.295,-11.293],[-72.373,-11.317],[-72.409,-11.332],[-72.474,-11.383],[-72.499,-11.393],[-72.543,-11.424],[-72.578,-11.429],[-72.634,-11.416],[-72.668,-11.394],[-72.696,-11.384],[-72.71,-11.356],[-72.72,-11.351],[-72.739,-11.353],[-72.768,-11.369],[-72.823,-11.37],[-72.836,-11.366],[-72.86,-11.346],[-72.909,-11.328],[-72.935,-11.309],[-72.942,-11.279],[-72.965,-11.248],[-72.975,-11.216],[-72.991,-11.2],[-73.011,-11.21],[-73.054,-11.267],[-73.095,-11.285],[-73.263,-11.312],[-73.335,-11.312],[-73.406,-11.33],[-73.435,-11.324],[-73.456,-11.311],[-73.478,-11.284],[-73.513,-11.195],[-73.516,-11.174],[-73.495,-11.041],[-73.495,-11.005],[-73.53,-10.927],[-73.566,-10.866],[-73.618,-10.806],[-73.643,-10.79],[-73.745,-10.76],[-73.759,-10.757],[-73.772,-10.768],[-73.811,-10.836],[-73.886,-10.94],[-73.928,-10.97],[-73.973,-10.976],[-74.033,-10.972],[-74.11,-10.983],[-74.198,-11.011],[-74.295,-11.013],[-74.344,-11.04],[-74.385,-11.05],[-74.414,-11.048],[-74.447,-11.032],[-74.48,-10.979],[-74.509,-10.848],[-74.466,-10.825],[-74.413,-10.78],[-74.275,-10.648],[-74.23,-10.624],[-74.174,-10.603],[-74.167,-10.581],[-74.193,-10.547],[-74.28,-10.513],[-74.299,-10.497],[-74.311,-10.449],[-74.369,-10.315],[-74.373,-10.285],[-74.362,-10.113],[-74.422,-10.0],[-74.438,-9.954],[-74.434,-9.88],[-74.44,-9.847],[-74.502,-9.695],[-74.687,-9.439],[-74.702,-9.415],[-74.72,-9.364],[-74.709,-9.303],[-74.67,-9.173],[-74.669,-9.136],[-74.68,-9.093],[-74.679,-9.069],[-74.629,-8.966],[-74.614,-8.823],[-74.603,-8.806],[-74.537,-8.772],[-74.513,-8.749],[-74.511,-8.717],[-74.528,-8.665],[-74.547,-8.643],[-74.575,-8.628],[-74.679,-8.619],[-74.731,-8.631],[-74.818,-8.669],[-74.905,-8.742],[-74.99,-8.79],[-75.039,-8.838],[-75.158,-9.001],[-75.184,-9.056],[-75.222,-9.116],[-75.237,-9.155],[-75.274,-9.196],[-75.296,-9.231],[-75.33,-9.252],[-75.436,-9.284],[-75.557,-9.384],[-75.616,-9.407],[-75.649,-9.405],[-75.662,-9.396],[-75.721,-9.29],[-75.775,-9.245],[-75.783,-9.233],[-75.797,-9.182],[-75.799,-9.092],[-75.833,-9.032],[-75.875,-9.008],[-75.883,-8.997],[-75.904,-8.797],[-75.97,-8.684],[-75.974,-8.645],[-75.873,-8.598],[-75.77,-8.504],[-75.701,-8.459],[-75.643,-8.392],[-75.625,-8.384],[-75.604,-8.383],[-75.574,-8.395],[-75.473,-8.473],[-75.452,-8.481],[-75.429,-8.481],[-75.416,-8.472],[-75.412,-8.458],[-75.423,-8.43],[-75.475,-8.369],[-75.499,-8.33],[-75.509,-8.292],[-75.506,-8.254],[-75.496,-8.234],[-75.464,-8.209],[-75.401,-8.2],[-75.392,-8.193],[-75.362,-8.117],[-75.349,-8.105],[-75.339,-8.103],[-75.31,-8.117],[-75.184,-8.116],[-75.136,-8.106],[-75.091,-8.086],[-75.0,-8.029],[-74.918,-8.002],[-74.691,-7.964],[-74.584,-7.909],[-74.555,-7.868],[-74.549,-7.762],[-74.565,-7.672],[-74.562,-7.573],[-74.587,-7.439],[-74.608,-7.382],[-74.608,-7.363],[-74.588,-7.328],[-74.558,-7.32],[-74.519,-7.326],[-74.423,-7.385],[-74.377,-7.4],[-74.308,-7.4],[-74.231,-7.417],[-74.067,-7.478],[-74.021,-7.5],[-73.984,-7.529]]]}}]}